{
"type": "FeatureCollection",
"name": "Waipa_Urban_2025-26 - Captured_Area",
"crs": { "type": "name", "properties": { "name": "urn:ogc:def:crs:OGC:1.3:CRS84" } },
"xy_coordinate_resolution": 1e-15,
"features": [
{ "type": "Feature", "properties": { "Name": "P-252", "description": "<div><div><span><b>Altitude:</b></span> <span>7,000 ft</span></div>\n<div><span><b>Speed:</b></span> <span>161 kt</span></div>\n<div><span><b>Timestamp:</b></span><br/><span>2026-02-20 22:02:04 UTC<br/>2026-02-20 22:02:18 UTC</span></div>\n</div>", "timestamp": null, "begin": null, "end": null, "altitudeMode": "absolute", "tessellate": 1, "extrude": 0, "visibility": -1, "drawOrder": null, "icon": null, "index_tile": "BE33_1000_1247", "sheet_code": "BE33", "scale": 1000, "tile": "1247", "layer": "Dissolved", "path": "MultiPolygonM?crs=EPSG:2193&field=index_tile:string(15,0)&field=sheet_code:string(4,0)&field=scale:integer(9,0)&field=tile:string(4,0)&uid={c36f2c87-825a-4c03-9808-399dc7cb1150}", "Area": 326.49328968312903, "Percentage_Coverage": 96.33, "Project": "PGRM" }, "geometry": { "type": "MultiPolygon", "coordinates": [ [ [ [ 175.254867832631732, -38.083134789136466 ], [ 175.249398746010513, -38.083239648680141 ], [ 175.247760347200625, -38.083271012322342 ], [ 175.246768041949707, -38.083289996765458 ], [ 175.245219836439645, -38.083319599747732 ], [ 175.243929631029005, -38.083344253953776 ], [ 175.243905019242959, -38.082539358555493 ], [ 175.243879402929821, -38.081701577248211 ], [ 175.243731387265882, -38.076860042914561 ], [ 175.243533207137119, -38.07037582382587 ], [ 175.243455365200333, -38.067828356136793 ], [ 175.243335090620832, -38.063891596688443 ], [ 175.243137037695192, -38.05740736150301 ], [ 175.242974550496712, -38.057410463642633 ], [ 175.237669822278804, -38.057511615853755 ], [ 175.234926193324043, -38.057563838190298 ], [ 175.232887469769537, -38.057602601810913 ], [ 175.232202578678198, -38.05761561616162 ], [ 175.232148521740527, -38.055836766571367 ], [ 175.232005552487351, -38.051131324684349 ], [ 175.237472314500138, -38.05102734846939 ], [ 175.242939048338371, -38.05092311827034 ], [ 175.24430657668205, -38.050897004813521 ], [ 175.244496498303022, -38.050893376930716 ], [ 175.248405753933497, -38.050818634091236 ], [ 175.253872431216962, -38.050713895936056 ], [ 175.259339080120156, -38.050608903808843 ], [ 175.260160388389693, -38.050593107820369 ], [ 175.260425332179523, -38.050588011006226 ], [ 175.261117601587245, -38.050574690761479 ], [ 175.261321860056114, -38.050570759759175 ], [ 175.264805700574527, -38.050503657713669 ], [ 175.265005616146794, -38.056987803751724 ], [ 175.265205595905229, -38.063471941725659 ], [ 175.265352073268758, -38.068219994108276 ], [ 175.265405639871943, -38.069956071634692 ], [ 175.265605748068936, -38.076440193478092 ], [ 175.265651100199335, -38.077909451745136 ], [ 175.265680957847735, -38.078876681734343 ], [ 175.265715805371144, -38.080005498495325 ], [ 175.265738351194813, -38.080735792225092 ], [ 175.265769664520064, -38.081750034773911 ], [ 175.265805920518346, -38.082924307255091 ], [ 175.263627933100423, -38.082966299587767 ], [ 175.262535127290306, -38.082987354027537 ], [ 175.261994409722092, -38.082997767949067 ], [ 175.260916744508506, -38.083018515756486 ], [ 175.260336890823936, -38.083029675326756 ], [ 175.259698355840783, -38.083041960933713 ], [ 175.258897729745286, -38.083057360314896 ], [ 175.254867832631732, -38.083134789136466 ] ] ], [ [ [ 175.138688860376192, -38.039890648904439 ], [ 175.135648188651544, -38.039945948891095 ], [ 175.133222566004719, -38.039990006673712 ], [ 175.133034391340033, -38.033505267686266 ], [ 175.132905164245244, -38.029050726550302 ], [ 175.132846277073071, -38.027020520736457 ], [ 175.136668438288893, -38.026951094154406 ], [ 175.138311609008866, -38.026921209008307 ], [ 175.139123350022572, -38.026906436996093 ], [ 175.143776914042036, -38.026821643460664 ], [ 175.149242192103912, -38.026721824097343 ], [ 175.154707443126028, -38.026621750922175 ], [ 175.15477855347109, -38.029048479463754 ], [ 175.154897481900321, -38.033106405445146 ], [ 175.155030883373399, -38.037657188884239 ], [ 175.155087581689173, -38.039591051989696 ], [ 175.153000229967802, -38.039629314105781 ], [ 175.149621368286972, -38.039691171558601 ], [ 175.147431871216554, -38.039731203184132 ], [ 175.14415512782648, -38.039791037198128 ], [ 175.140851540112493, -38.039851268843258 ], [ 175.138688860376192, -38.039890648904439 ] ] ], [ [ [ 175.124573636725984, -37.929847075475266 ], [ 175.119115450102043, -37.92994553651382 ], [ 175.116432233327743, -37.929993846545045 ], [ 175.113657236917845, -37.930043744601797 ], [ 175.108198997241573, -37.930141699735465 ], [ 175.104774859046557, -37.930203020939601 ], [ 175.102740731141438, -37.930239401910988 ], [ 175.10110727977812, -37.930268591185005 ], [ 175.097282438685539, -37.930336851124686 ], [ 175.092859392360083, -37.930415631759011 ], [ 175.091824119942203, -37.930434047372771 ], [ 175.089472997929931, -37.930475835694693 ], [ 175.086365774979555, -37.930530990651533 ], [ 175.082384959662335, -37.930601532355745 ], [ 175.080907403865751, -37.930627680957244 ], [ 175.075449006669089, -37.930724118286165 ], [ 175.075266643251837, -37.924239017710988 ], [ 175.075198911830711, -37.921829860618814 ], [ 175.075184371680535, -37.921312640524384 ], [ 175.075084338347637, -37.917753909224707 ], [ 175.074902091936536, -37.911268792828061 ], [ 175.080359053282592, -37.91117242259358 ], [ 175.084571973260239, -37.911097848959045 ], [ 175.085815988572506, -37.911075799558162 ], [ 175.085962850780646, -37.911073195647845 ], [ 175.091272897738151, -37.910978923725509 ], [ 175.096051220167965, -37.910893886781444 ], [ 175.096174634018951, -37.91089168788649 ], [ 175.096185351884799, -37.910891496917522 ], [ 175.096729780711399, -37.910881795099343 ], [ 175.097209994613991, -37.910873235510046 ], [ 175.09786392637389, -37.910861576326909 ], [ 175.098322183362939, -37.910853403731842 ], [ 175.098518430192939, -37.910849903302562 ], [ 175.099459043923162, -37.910833121149935 ], [ 175.100589947983138, -37.910812933931062 ], [ 175.10210822125822, -37.910785814868127 ], [ 175.102186637424097, -37.910784413683402 ], [ 175.104500179444585, -37.910743050463296 ], [ 175.104755743546519, -37.91073847850663 ], [ 175.104936916681794, -37.910735237043113 ], [ 175.105366710878087, -37.910727546253199 ], [ 175.105987100608701, -37.910716442152868 ], [ 175.106577017321285, -37.91070588044029 ], [ 175.106635150845364, -37.910704839472871 ], [ 175.107643467808117, -37.910686779481409 ], [ 175.108595318084582, -37.910669722931885 ], [ 175.110149968300902, -37.910641848021072 ], [ 175.110278449200848, -37.910639543436233 ], [ 175.113100271795389, -37.910588892497138 ], [ 175.113663041468726, -37.910578782836303 ], [ 175.113861098760054, -37.910575224270914 ], [ 175.114172714085441, -37.910569624692812 ], [ 175.115241780140593, -37.91055040781098 ], [ 175.115323857488448, -37.910548932036647 ], [ 175.116346913807803, -37.910530532381657 ], [ 175.11725030063036, -37.910514277580184 ], [ 175.118527749777854, -37.910491280360766 ], [ 175.118557049317758, -37.910490752734326 ], [ 175.118761989997438, -37.910487061956161 ], [ 175.120440350602593, -37.910456822906227 ], [ 175.120518752643505, -37.91045540974968 ], [ 175.122444895503776, -37.910420675593599 ], [ 175.122805119778519, -37.910414176162696 ], [ 175.124013800307125, -37.910392360196745 ], [ 175.124564686718941, -37.910382412901932 ], [ 175.12468917092184, -37.910380164746954 ], [ 175.126129683830982, -37.91035413984082 ], [ 175.126445471926957, -37.910348432322976 ], [ 175.127175225784839, -37.910335239590729 ], [ 175.128422874019094, -37.910312673700538 ], [ 175.12864828243525, -37.910308595384905 ], [ 175.129470524695392, -37.910293714888176 ], [ 175.129698413050079, -37.910289589669993 ], [ 175.130493340643142, -37.910275196491703 ], [ 175.132099691336094, -37.910246095059264 ], [ 175.132978470651921, -37.910230165377406 ], [ 175.133594152341686, -37.910219000968048 ], [ 175.13482818766866, -37.910196613990657 ], [ 175.134927222414404, -37.9101948168124 ], [ 175.135931582143684, -37.910176586037181 ], [ 175.137222168242999, -37.910153147188602 ], [ 175.138465355446442, -37.910130555774593 ], [ 175.139900581973535, -37.910104458240831 ], [ 175.140383893396091, -37.910095665973238 ], [ 175.140409294857108, -37.910972041100997 ], [ 175.140418166963968, -37.911278128434425 ], [ 175.140441394683307, -37.912079461785154 ], [ 175.140571880775781, -37.916580510171201 ], [ 175.140659316674686, -37.919596002031177 ], [ 175.140677072939695, -37.920208325448989 ], [ 175.140697339546392, -37.920907195046944 ], [ 175.140712428627751, -37.921427508142472 ], [ 175.140732351511559, -37.922114483466402 ], [ 175.140759928488421, -37.923065346411711 ], [ 175.140806388821801, -37.924667211941014 ], [ 175.140871598763709, -37.926915313980174 ], [ 175.140872786084316, -37.926956244336147 ], [ 175.140885155827078, -37.927382659993377 ], [ 175.140948036554533, -37.929550174694064 ], [ 175.140296800634474, -37.929562026462634 ], [ 175.139009505393403, -37.929585443188394 ], [ 175.136810831259282, -37.929625405880408 ], [ 175.135489930020412, -37.929649394561594 ], [ 175.130031796721511, -37.929748361489921 ], [ 175.128407824407276, -37.929777758453916 ], [ 175.124769454103927, -37.929843538387438 ], [ 175.124573636725984, -37.929847075475266 ] ] ], [ [ [ 175.188391223357968, -37.909212429974481 ], [ 175.187707541178128, -37.909225145914448 ], [ 175.186301537588889, -37.909251283957772 ], [ 175.184633567578715, -37.909282270232659 ], [ 175.184036290532958, -37.909293360236148 ], [ 175.183291885215397, -37.909307177811556 ], [ 175.18143691967137, -37.909341588986351 ], [ 175.181430078365224, -37.909341715844185 ], [ 175.180608061662923, -37.909356955540808 ], [ 175.178579835901644, -37.909394533044704 ], [ 175.177811180234698, -37.90940876499959 ], [ 175.175137379032975, -37.909458232311124 ], [ 175.173123353988245, -37.90949545312057 ], [ 175.173113934768907, -37.90917536497485 ], [ 175.173061833015055, -37.907404727814509 ], [ 175.172932557848526, -37.903010740204905 ], [ 175.172814757481206, -37.899005939075757 ], [ 175.172741822919477, -37.896526019309185 ], [ 175.17255114918018, -37.890041290434148 ], [ 175.1780061971142, -37.889940440580617 ], [ 175.183461217794076, -37.889839338170091 ], [ 175.188916211151763, -37.889737983206423 ], [ 175.194371177119251, -37.889636375693513 ], [ 175.197453725475043, -37.889578846368863 ], [ 175.199826115628525, -37.889534515635255 ], [ 175.205281026611544, -37.889432403035563 ], [ 175.210735910000352, -37.889330037898368 ], [ 175.210929928423241, -37.895814601720168 ], [ 175.211007102641048, -37.898393369783918 ], [ 175.211124009107493, -37.902299157534145 ], [ 175.211318152074398, -37.908783705339516 ], [ 175.206968004863285, -37.908865395081115 ], [ 175.205861834875066, -37.908886141753001 ], [ 175.204909861653988, -37.908903988068566 ], [ 175.200405490053157, -37.908988325453329 ], [ 175.194949117676799, -37.909090256436563 ], [ 175.19436386161675, -37.909101174619956 ], [ 175.193943771895107, -37.90910900976381 ], [ 175.190132549918729, -37.909180024739072 ], [ 175.189641692759864, -37.909189161961066 ], [ 175.189492717814034, -37.909191934698804 ], [ 175.188919768891623, -37.909202596726786 ], [ 175.188391223357968, -37.909212429974481 ] ] ], [ [ [ 175.128498627818885, -37.832451497903122 ], [ 175.128258958838273, -37.832455830960562 ], [ 175.127368065534597, -37.832471933444801 ], [ 175.127357701625925, -37.83247212072795 ], [ 175.127230831577521, -37.83247441328546 ], [ 175.127214639400506, -37.831910711244134 ], [ 175.127071053844759, -37.826911343281353 ], [ 175.127044579412768, -37.825989419857152 ], [ 175.127012138689366, -37.824859673754439 ], [ 175.126958305262633, -37.82298478827574 ], [ 175.126879297894021, -37.820232840380953 ], [ 175.126858386987891, -37.819504418489402 ], [ 175.126672254282425, -37.813019409182978 ], [ 175.132121794762043, -37.81292085483549 ], [ 175.137571308640872, -37.812822048602186 ], [ 175.143020795851243, -37.812722990486861 ], [ 175.143208356769776, -37.819207930955301 ], [ 175.143216804781929, -37.819499972812665 ], [ 175.143378264737521, -37.825080716472549 ], [ 175.143395977865254, -37.825692863473165 ], [ 175.143514989893788, -37.829805311127352 ], [ 175.143532160396546, -37.830398566657927 ], [ 175.143569806677959, -37.83169921666331 ], [ 175.143576294176597, -37.831923346255273 ], [ 175.143582279567596, -37.832130126859589 ], [ 175.143583659158281, -37.832177788039743 ], [ 175.140547892627836, -37.832233025857725 ], [ 175.13959180652617, -37.832250406269267 ], [ 175.138134529008084, -37.832276882747884 ], [ 175.13813274330451, -37.832276915180287 ], [ 175.136974588361738, -37.832297944173952 ], [ 175.132681800754995, -37.832375790263448 ], [ 175.131114780924094, -37.83240416782607 ], [ 175.129939722438706, -37.832425433567465 ], [ 175.128498627818885, -37.832451497903122 ] ] ], [ [ [ 175.2570770816763, -37.804103574880301 ], [ 175.25725625415879, -37.804100140209719 ], [ 175.261428964933998, -37.804020073717176 ], [ 175.261508611153801, -37.804018544016493 ], [ 175.261644441303076, -37.804015935112005 ], [ 175.262617068184511, -37.803997249180391 ], [ 175.262704661820806, -37.803995565952683 ], [ 175.268153041266146, -37.803890739961766 ], [ 175.268236781749351, -37.806627316914017 ], [ 175.268351485382823, -37.8103751432472 ], [ 175.268464332884662, -37.814061641816032 ], [ 175.268549993161116, -37.816859538488885 ], [ 175.271636466693309, -37.816800026037136 ], [ 175.27399929584297, -37.816754411959394 ], [ 175.276682014357107, -37.816702564939632 ], [ 175.277558999508415, -37.81668560279558 ], [ 175.277728533460845, -37.816682323013062 ], [ 175.278242801776344, -37.816672372548453 ], [ 175.279448570153363, -37.816649033587268 ], [ 175.279548613376448, -37.8199006125095 ], [ 175.279548760725135, -37.819905401211564 ], [ 175.279648093583262, -37.823133371904781 ], [ 175.279799390296716, -37.828048992214605 ], [ 175.279847681023199, -37.829617702168605 ], [ 175.279915178621025, -37.829616394935236 ], [ 175.282080382844526, -37.829574440641125 ], [ 175.285297878986086, -37.829512022898719 ], [ 175.290748048422643, -37.829406091677455 ], [ 175.291008080549005, -37.829401031299611 ], [ 175.29333618179524, -37.829355699472487 ], [ 175.29391493832307, -37.829344423013545 ], [ 175.294155011851274, -37.829339744599189 ], [ 175.295077853814178, -37.82932175622625 ], [ 175.296198189265112, -37.829299908508879 ], [ 175.301648301445681, -37.829193473397048 ], [ 175.307098384896648, -37.82908678634606 ], [ 175.309837741535745, -37.829033067249952 ], [ 175.310653895322361, -37.829017050047199 ], [ 175.3107692468067, -37.829014785791507 ], [ 175.310878802067606, -37.829012635206233 ], [ 175.312548439550199, -37.828979847359989 ], [ 175.316902864859429, -37.828894224952371 ], [ 175.317998465338604, -37.82887265644294 ], [ 175.319918347326876, -37.828834836130511 ], [ 175.323448462194051, -37.828765213599027 ], [ 175.325797314472993, -37.828718829772306 ], [ 175.326131772857707, -37.828712221259813 ], [ 175.326171524139681, -37.828711435757036 ], [ 175.326801686028318, -37.828698981687204 ], [ 175.328898430048866, -37.828657518832351 ], [ 175.334348368835236, -37.828549572147047 ], [ 175.334465762793428, -37.832273603490691 ], [ 175.334552782611354, -37.835033646368203 ], [ 175.336997041956721, -37.834985144002729 ], [ 175.337181254934421, -37.834981486536535 ], [ 175.337277979172001, -37.834979566004598 ], [ 175.337499129149251, -37.834975174607898 ], [ 175.337806703234946, -37.834969066387984 ], [ 175.339084451312402, -37.83494368253745 ], [ 175.340003168437676, -37.834925422648283 ], [ 175.34034696521789, -37.834918587697686 ], [ 175.342016070105672, -37.834885390297359 ], [ 175.343076548308204, -37.834864285777698 ], [ 175.343120388691631, -37.834863413106802 ], [ 175.343294981795339, -37.834859937557155 ], [ 175.345453525050146, -37.834816946959627 ], [ 175.345766088834949, -37.834810718504045 ], [ 175.346177627055511, -37.834802516519105 ], [ 175.34800062311345, -37.834766166767047 ], [ 175.348174147507535, -37.834762705293109 ], [ 175.349766039306076, -37.834730938203784 ], [ 175.350903852380924, -37.834708219306357 ], [ 175.351326061772625, -37.83469978618345 ], [ 175.351763849333622, -37.834691040305003 ], [ 175.352537138765911, -37.834675587974303 ], [ 175.353190922113754, -37.834662519719501 ], [ 175.354268034025068, -37.834640981767812 ], [ 175.355231920336877, -37.834621699514969 ], [ 175.355528333829056, -37.834615768265124 ], [ 175.356312406824202, -37.834600075321354 ], [ 175.356354150362307, -37.834599239692665 ], [ 175.357046424915779, -37.834585379472095 ], [ 175.358285827277058, -37.834560554877179 ], [ 175.358352241346978, -37.834559224268709 ], [ 175.35849056128086, -37.834556452903072 ], [ 175.358516992666495, -37.834555923307711 ], [ 175.358647960916016, -37.834553299060417 ], [ 175.359233170130608, -37.834541571278756 ], [ 175.359886805153877, -37.834528468779695 ], [ 175.360021054489806, -37.834525777223057 ], [ 175.361379632603246, -37.834498530553248 ], [ 175.36139747034818, -37.834498172707839 ], [ 175.361804418926454, -37.834490008122721 ], [ 175.364660336082892, -37.834432670415467 ], [ 175.366534290220471, -37.834395009716019 ], [ 175.366673796546024, -37.834392204875058 ], [ 175.366984206717149, -37.834385963337397 ], [ 175.367254658005663, -37.834380524600697 ], [ 175.368586763409269, -37.834353727077101 ], [ 175.37270486753215, -37.834270789130827 ], [ 175.372725786280455, -37.834923559618815 ], [ 175.372790000251257, -37.836927227311243 ], [ 175.372816092677425, -37.837741331979728 ], [ 175.372853879908604, -37.838920265618839 ], [ 175.372904702766647, -37.840505792320343 ], [ 175.372912680977095, -37.84075467815606 ], [ 175.37304088945578, -37.844753809126971 ], [ 175.373084630733445, -37.846118023136697 ], [ 175.373120561090843, -37.847238559052037 ], [ 175.367669398874966, -37.847348345476227 ], [ 175.364910380898948, -37.847403815805514 ], [ 175.364776093014939, -37.847406514024904 ], [ 175.362218207086187, -37.84745787983573 ], [ 175.360197719048301, -37.847498414642693 ], [ 175.359853649429084, -37.847505313870499 ], [ 175.358842789774911, -37.847525577640383 ], [ 175.358218551966615, -37.847538086819945 ], [ 175.356766985792319, -37.847567162126303 ], [ 175.356089131091892, -37.847580733623033 ], [ 175.351315735061178, -37.847676192343791 ], [ 175.35150975741962, -37.853782021584728 ], [ 175.351521775512026, -37.854160166694079 ], [ 175.351656622261885, -37.858402586095544 ], [ 175.35172788206674, -37.860644132931043 ], [ 175.352498812310188, -37.860628724473173 ], [ 175.357180086157911, -37.86053505209231 ], [ 175.357233882562753, -37.862223193936806 ], [ 175.357267785483202, -37.863287001596362 ], [ 175.357292248099384, -37.864054555972061 ], [ 175.357331847766176, -37.865296997915152 ], [ 175.357341016959793, -37.865584670988902 ], [ 175.357341983934248, -37.865615008479431 ], [ 175.357386735748094, -37.86701898489796 ], [ 175.360204280618831, -37.866962507774403 ], [ 175.36067690529012, -37.866953027495391 ], [ 175.362839387280928, -37.866909626493644 ], [ 175.366467133640356, -37.866836728327691 ], [ 175.366656677908622, -37.866832916432074 ], [ 175.366940797865766, -37.866827201967055 ], [ 175.368292009278349, -37.866800015845051 ], [ 175.369143761396316, -37.866782870772546 ], [ 175.370228280982417, -37.866761031352539 ], [ 175.370791678335337, -37.866749682038979 ], [ 175.372752046308989, -37.866710170523653 ], [ 175.372846986769076, -37.866708256154503 ], [ 175.372960331176529, -37.866705970589756 ], [ 175.373046132353977, -37.866704240355446 ], [ 175.373429502010168, -37.866696508702233 ], [ 175.373638393395339, -37.866692295334275 ], [ 175.37374460167257, -37.866690152956416 ], [ 175.373803492273169, -37.868524826454163 ], [ 175.373890158541229, -37.871224517058536 ], [ 175.373940750007193, -37.872800295123454 ], [ 175.373950615460245, -37.873107561126069 ], [ 175.373952748689305, -37.873174001327378 ], [ 175.374140832664523, -37.879031083967163 ], [ 175.374145855038478, -37.879187461279493 ], [ 175.374160962488702, -37.879657841565098 ], [ 175.372800813647217, -37.879685278456861 ], [ 175.371043103114573, -37.879720711648758 ], [ 175.370823673612648, -37.879725133221378 ], [ 175.36870741587876, -37.879767755451994 ], [ 175.365027391698391, -37.879841781820971 ], [ 175.363253839645324, -37.879877416981905 ], [ 175.360402654409398, -37.879934648454046 ], [ 175.357800233856409, -37.879986826150642 ], [ 175.352346598579885, -37.880095982953996 ], [ 175.34689293388368, -37.880204887387748 ], [ 175.345012968556176, -37.880242369856767 ], [ 175.34499457959339, -37.880242736344712 ], [ 175.34425127967603, -37.880257547739873 ], [ 175.344187716340798, -37.880258814119081 ], [ 175.341439239835751, -37.880313539447762 ], [ 175.335985516504024, -37.88042193912986 ], [ 175.330531763956401, -37.880530086429864 ], [ 175.330683740764641, -37.885349883763972 ], [ 175.330710974119569, -37.886213441354577 ], [ 175.330736225582683, -37.887014120941785 ], [ 175.329862269973631, -37.887031430368104 ], [ 175.329362770232848, -37.887041320463332 ], [ 175.328341814887096, -37.887061528778489 ], [ 175.328106071059864, -37.887066193722248 ], [ 175.325343650516402, -37.887120821805013 ], [ 175.325281966469731, -37.887122040893381 ], [ 175.325486016130952, -37.893606092347554 ], [ 175.325639002359253, -37.898466140306773 ], [ 175.325690131266924, -37.900090135705369 ], [ 175.325894311900043, -37.906574170966088 ], [ 175.326098558052678, -37.913058198128894 ], [ 175.326273397026455, -37.918607002256884 ], [ 175.326302869747252, -37.919542217193012 ], [ 175.3264893561159, -37.925458710600935 ], [ 175.326507247006163, -37.926026228157646 ], [ 175.326589115888282, -37.928622989729959 ], [ 175.326711689851919, -37.932510231022064 ], [ 175.32679088225467, -37.935021294941365 ], [ 175.326856881743367, -37.93711379345244 ], [ 175.326916198306861, -37.93899422578545 ], [ 175.327120772393528, -37.945478212447043 ], [ 175.327325412134343, -37.951962191006054 ], [ 175.321866341238888, -37.95207010853953 ], [ 175.316407241222038, -37.952177773034478 ], [ 175.315993410389495, -37.952185924274197 ], [ 175.315793206634453, -37.952189867171164 ], [ 175.315272411823514, -37.952200122325522 ], [ 175.315207047922627, -37.952201409266138 ], [ 175.31500226856366, -37.952205440902603 ], [ 175.310948112151976, -37.952285184486733 ], [ 175.305488954096859, -37.952392342892225 ], [ 175.300099415656007, -37.952497885941099 ], [ 175.300029767124954, -37.952499248246802 ], [ 175.300232076881429, -37.958983343250651 ], [ 175.300282340264118, -37.960593977492749 ], [ 175.300284037420852, -37.960648358744386 ], [ 175.300434451569515, -37.965467430171969 ], [ 175.299805811086742, -37.965479727879341 ], [ 175.299511254927438, -37.965485488943258 ], [ 175.298326229564253, -37.965508658749378 ], [ 175.297028277130096, -37.9655340228094 ], [ 175.294974277271592, -37.96557413194342 ], [ 175.289514074173525, -37.965680580538503 ], [ 175.287072314112521, -37.965728101410065 ], [ 175.286115316452538, -37.965746712397717 ], [ 175.284287682354574, -37.965782233226598 ], [ 175.284053842343582, -37.965786775953141 ], [ 175.283644120937709, -37.965794734342815 ], [ 175.282559333479725, -37.965815798252464 ], [ 175.278593581850032, -37.965892718183248 ], [ 175.273133292761145, -37.965998407224774 ], [ 175.272965625993663, -37.966001648557658 ], [ 175.271601602642363, -37.96602800895797 ], [ 175.271381310426648, -37.966032264724703 ], [ 175.271166964942807, -37.966036405211682 ], [ 175.269845933671519, -37.966061914789243 ], [ 175.268987851604834, -37.966078476698357 ], [ 175.268040737126626, -37.966096749753575 ], [ 175.267672975145103, -37.966103843073626 ], [ 175.26766815458717, -37.965947186798267 ], [ 175.267667624963082, -37.96592997524376 ], [ 175.267649561415965, -37.965342943046537 ], [ 175.267643736014378, -37.965153624513569 ], [ 175.26764222572919, -37.965104541773407 ], [ 175.267641064328245, -37.965066797336974 ], [ 175.267639582589169, -37.965018642110188 ], [ 175.267530320874272, -37.961467414238115 ], [ 175.267473476497202, -37.959619608603205 ], [ 175.26742962430481, -37.958194016107775 ], [ 175.267274041859679, -37.953135366075799 ], [ 175.272733400900194, -37.953029979112586 ], [ 175.274970678064534, -37.952986717654426 ], [ 175.275989426744786, -37.952967004348338 ], [ 175.278192731433137, -37.952924339073967 ], [ 175.277992402678933, -37.946440137421824 ], [ 175.277906003069489, -37.943642927047684 ], [ 175.277792138198265, -37.939955927705732 ], [ 175.28272507605439, -37.939860282997707 ], [ 175.282870721318517, -37.939857455935538 ], [ 175.283215055761445, -37.939850771479129 ], [ 175.283250482232972, -37.939850083698929 ], [ 175.288708797643267, -37.939743986742045 ], [ 175.288532091400185, -37.934048103617627 ], [ 175.288508689640167, -37.933293659144383 ], [ 175.28850763996158, -37.933259818111736 ], [ 175.288306546816045, -37.926775641410444 ], [ 175.288250078723962, -37.924954472274372 ], [ 175.288105518184608, -37.920291456638999 ], [ 175.288093559924562, -37.919905676764351 ], [ 175.288091145877473, -37.919827797415408 ], [ 175.287944097800022, -37.915083324811263 ], [ 175.287904554045213, -37.91380726379812 ], [ 175.293360926836471, -37.913701012519191 ], [ 175.29325779556163, -37.910380542593458 ], [ 175.293252213944072, -37.910200818212857 ], [ 175.29319745417817, -37.908437504999632 ], [ 175.293189687468526, -37.908187397527215 ], [ 175.293185943593045, -37.908066834265178 ], [ 175.293181714949071, -37.907930659232854 ], [ 175.293173953797179, -37.907680724442841 ], [ 175.293159549068406, -37.907216836254989 ], [ 175.293886808134573, -37.907202657346744 ], [ 175.294260069699845, -37.907195378355851 ], [ 175.294570910433094, -37.907189315732033 ], [ 175.295725613185027, -37.907166787263357 ], [ 175.296144344948146, -37.907158614925379 ], [ 175.296513872560183, -37.907151401660052 ], [ 175.297086462003563, -37.907140222285946 ], [ 175.29722662584939, -37.907137485268379 ], [ 175.298238252159422, -37.907117726010242 ], [ 175.298314028343981, -37.907116245586387 ], [ 175.298564085033092, -37.90711135993331 ], [ 175.298615415049483, -37.907110356972311 ], [ 175.299572869484223, -37.907091644718001 ], [ 175.300009520295163, -37.907083108332692 ], [ 175.300437309984147, -37.907074743606643 ], [ 175.301135688659912, -37.907061084611435 ], [ 175.301895832768224, -37.907046212883053 ], [ 175.302906655198655, -37.907026429181364 ], [ 175.304071252250964, -37.907003625044645 ], [ 175.304154751591028, -37.907001989589212 ], [ 175.305937156603534, -37.906967064461533 ], [ 175.308241877503377, -37.906921864811416 ], [ 175.309527060604808, -37.906896640476077 ], [ 175.309493570015206, -37.905825712000798 ], [ 175.309492984750847, -37.9058069964982 ], [ 175.309487868513429, -37.905643389421748 ], [ 175.309474946969203, -37.905230178270529 ], [ 175.309456869770059, -37.904652082955081 ], [ 175.309452093100163, -37.904499325850082 ], [ 175.309410861178918, -37.903180687708776 ], [ 175.309383209059916, -37.902296296856392 ], [ 175.30937030682054, -37.901883634446641 ], [ 175.309367454868749, -37.901792417101497 ], [ 175.309324313660227, -37.900412530414158 ], [ 175.309213916458532, -37.896881006446094 ], [ 175.309166471324374, -37.89536308171617 ], [ 175.309121631753726, -37.893928412268032 ], [ 175.303666779078839, -37.894035347207534 ], [ 175.29821189757601, -37.894142029623204 ], [ 175.298010235915086, -37.887657853835954 ], [ 175.297935153025549, -37.885243124814593 ], [ 175.297808638941945, -37.881173669974608 ], [ 175.303262565358068, -37.881067037053867 ], [ 175.303161017822902, -37.877807793949366 ], [ 175.30306055573655, -37.874582869860227 ], [ 175.302858610911358, -37.868098694589769 ], [ 175.302854727467519, -37.867973981991483 ], [ 175.302846420606244, -37.867707213535475 ], [ 175.302827031394202, -37.867084530159438 ], [ 175.302825297640936, -37.867028849839748 ], [ 175.302780791276803, -37.865599453846265 ], [ 175.302769614720773, -37.865240484197251 ], [ 175.302761975841378, -37.864995134288108 ], [ 175.302656730860463, -37.861614511243275 ], [ 175.301374326002787, -37.86163959615925 ], [ 175.298908165538194, -37.861687797025148 ], [ 175.298139894401515, -37.861702802244842 ], [ 175.297204235927865, -37.861721069953688 ], [ 175.297034892884739, -37.856267422957146 ], [ 175.297027092346724, -37.856016173143793 ], [ 175.297018058921026, -37.855725208972551 ], [ 175.297006338466701, -37.855347690076186 ], [ 175.297002897484703, -37.85523685380366 ], [ 175.29698282612236, -37.854590329979644 ], [ 175.296973630604896, -37.854294123863241 ], [ 175.29697164046064, -37.854230016738924 ], [ 175.29697051942324, -37.854193905456867 ], [ 175.296801623618961, -37.848752629583402 ], [ 175.295874604239202, -37.848770716048421 ], [ 175.295212222638895, -37.848783634864411 ], [ 175.294847770494187, -37.848790741397011 ], [ 175.294306597513156, -37.848801291764637 ], [ 175.293449063277791, -37.848818004613186 ], [ 175.291350053553742, -37.84885888672305 ], [ 175.290713432987502, -37.84887127868663 ], [ 175.285898454865134, -37.848964891740074 ], [ 175.285099180610018, -37.848980412195694 ], [ 175.283860009914633, -37.849004463903952 ], [ 175.283277290680417, -37.849015769691441 ], [ 175.280614520218336, -37.849067395427667 ], [ 175.280446827620921, -37.849070644630402 ], [ 175.28040344284949, -37.847662669646247 ], [ 175.280382493229723, -37.846982752041733 ], [ 175.280330870246956, -37.845307235819718 ], [ 175.280247048020101, -37.842586338532193 ], [ 175.279934218208666, -37.842592398389819 ], [ 175.279467985943114, -37.84260142827776 ], [ 175.279147438498597, -37.842607635500862 ], [ 175.278874781229945, -37.8426129146698 ], [ 175.278690666461472, -37.842616479128218 ], [ 175.278595005198071, -37.842618331014691 ], [ 175.27664076261641, -37.842656145761325 ], [ 175.27479586887759, -37.842691814805853 ], [ 175.273337061802721, -37.842719998791992 ], [ 175.272427117713676, -37.842737569645749 ], [ 175.27221722052704, -37.842741621722858 ], [ 175.271983400101988, -37.842746135198432 ], [ 175.27176979485526, -37.842750258050707 ], [ 175.271243009176942, -37.842760424024775 ], [ 175.270629477972932, -37.842772261050641 ], [ 175.270124125688483, -37.842782008547459 ], [ 175.26934466132488, -37.842797039003187 ], [ 175.269287054854487, -37.840917920504161 ], [ 175.269194461687306, -37.837897171226658 ], [ 175.26918605662209, -37.837622942869636 ], [ 175.269183483945909, -37.837539004551907 ], [ 175.269145898682865, -37.836312675944001 ], [ 175.268461211810404, -37.836325872628443 ], [ 175.268407265696879, -37.836326912218816 ], [ 175.265502714779444, -37.836382849015457 ], [ 175.265483286379464, -37.836383222932518 ], [ 175.265115006087967, -37.836390310211478 ], [ 175.264438897892774, -37.836403318407072 ], [ 175.263695139243964, -37.836417623696128 ], [ 175.263665427960774, -37.835445820524257 ], [ 175.263649625719182, -37.834928938231755 ], [ 175.263643289554381, -37.834721682174909 ], [ 175.263574579646416, -37.832474042936695 ], [ 175.26354206315068, -37.831410275520327 ], [ 175.263532235360628, -37.831088751254214 ], [ 175.263517713822182, -37.830613657736642 ], [ 175.263505310550812, -37.830207857569761 ], [ 175.263496916654105, -37.82993322822955 ], [ 175.261896189144721, -37.829963995861156 ], [ 175.261252336111568, -37.829976365237357 ], [ 175.261080779627918, -37.829979660498502 ], [ 175.26040570135936, -37.829992624989252 ], [ 175.2592910225097, -37.830014023277755 ], [ 175.259007750781677, -37.830019459510865 ], [ 175.258046605263587, -37.83003789965354 ], [ 175.258033498114401, -37.829608021265855 ], [ 175.258020252176721, -37.829173581673942 ], [ 175.25800182463928, -37.828569180647371 ], [ 175.257986957445183, -37.828081541370544 ], [ 175.257977185890411, -37.827761031025162 ], [ 175.257959476322014, -37.827180138111167 ], [ 175.257848922408812, -37.82355347184712 ], [ 175.252399059001135, -37.823657867059964 ], [ 175.252337997518396, -37.821649650345101 ], [ 175.252321906931655, -37.821120422758561 ], [ 175.252282359552765, -37.8198196302368 ], [ 175.252253195590953, -37.818860315274144 ], [ 175.252249616974069, -37.818742597642185 ], [ 175.252244764545708, -37.818582977227209 ], [ 175.252231943672427, -37.818161229085511 ], [ 175.25220191556437, -37.817173406981276 ], [ 175.252186585173661, -37.816669070848675 ], [ 175.252040594879958, -37.811865678368584 ], [ 175.252004835353773, -37.810688938870662 ], [ 175.251987769912461, -37.810127341787521 ], [ 175.251940316595721, -37.808565644750011 ], [ 175.251938118150122, -37.808493290581261 ], [ 175.251887625939361, -37.806831444034884 ], [ 175.251884656366229, -37.806733702414917 ], [ 175.251840391659414, -37.805276701375142 ], [ 175.251834185822219, -37.805072423863081 ], [ 175.251807818347714, -37.804204462728862 ], [ 175.2570770816763, -37.804103574880301 ] ] ], [ [ [ 175.279998586163487, -38.011281790938469 ], [ 175.279857632333119, -38.006732853412245 ], [ 175.279797677956054, -38.004797661896404 ], [ 175.279662915646099, -38.000447160369617 ], [ 175.279634835586393, -37.99954053966961 ], [ 175.279598522287813, -37.998368031876431 ], [ 175.27959683422057, -37.998313524783534 ], [ 175.279548554767473, -37.996754535865158 ], [ 175.279528811901656, -37.996116985379835 ], [ 175.279523663340314, -37.995950721101863 ], [ 175.279522160022566, -37.995902173681301 ], [ 175.279511198793955, -37.995548193492269 ], [ 175.279481607520125, -37.994592546467771 ], [ 175.279459284796815, -37.993871606475984 ], [ 175.279452530309186, -37.993653456843944 ], [ 175.279442719590662, -37.993336595937301 ], [ 175.279420402408192, -37.992615789914034 ], [ 175.279396054935006, -37.991829379600553 ], [ 175.27999977656691, -37.991817671679655 ], [ 175.280055902816287, -37.991816583070573 ], [ 175.281779627288188, -37.991783137133012 ], [ 175.284858234344767, -37.99172333907908 ], [ 175.28502814532817, -37.991720036423509 ], [ 175.285083653610428, -37.99171895742446 ], [ 175.285360248741085, -37.991713580432609 ], [ 175.285895711126784, -37.991703169226916 ], [ 175.286302391000646, -37.991695260359421 ], [ 175.286610475295163, -37.991689267982643 ], [ 175.28761323641379, -37.991669758237343 ], [ 175.289084411955542, -37.991641119518029 ], [ 175.289496205150414, -37.991633100022881 ], [ 175.290320385051615, -37.991617045138447 ], [ 175.290698695464584, -37.9916096737796 ], [ 175.291801782740208, -37.991588173225715 ], [ 175.292208145588518, -37.991580250093584 ], [ 175.293504930917493, -37.991554956389621 ], [ 175.293908706582158, -37.991547077851898 ], [ 175.294164385169353, -37.991542088291268 ], [ 175.294247128133492, -37.99154047344539 ], [ 175.294879743282934, -37.99152812514059 ], [ 175.295782506987166, -37.991510497782755 ], [ 175.29577524172899, -37.991277501995462 ], [ 175.295752232146953, -37.990539570200362 ], [ 175.295632498427153, -37.986699197570886 ], [ 175.295580352280098, -37.985026418444193 ], [ 175.298313974357256, -37.984973007134094 ], [ 175.298680157233235, -37.984965847580561 ], [ 175.300511500273728, -37.984930024303274 ], [ 175.300546154339514, -37.984929346152754 ], [ 175.301041965445989, -37.984919642432764 ], [ 175.300839395829513, -37.978435579763783 ], [ 175.30596705739319, -37.978335115951133 ], [ 175.306300500330934, -37.978328575213752 ], [ 175.311761575875892, -37.978221317378335 ], [ 175.316081022237938, -37.978136301824613 ], [ 175.316202389297501, -37.978133910778404 ], [ 175.317222622396059, -37.978113806261604 ], [ 175.317302512834686, -37.978112231581953 ], [ 175.322683639823225, -37.97800604186768 ], [ 175.328144628088978, -37.977898024200726 ], [ 175.33210946927602, -37.977819441081117 ], [ 175.333078476552657, -37.977800215017091 ], [ 175.333605587125106, -37.977789753264922 ], [ 175.3338099503639, -37.984239434695155 ], [ 175.333811035190706, -37.984273666196515 ], [ 175.339272444635469, -37.984165116834482 ], [ 175.344733824703951, -37.984056314153236 ], [ 175.344945445956427, -37.984052093083463 ], [ 175.350195175327883, -37.983947258157016 ], [ 175.350435095222764, -37.983942461449935 ], [ 175.351708134518901, -37.983917001437668 ], [ 175.355648045628271, -37.983838118190569 ], [ 175.355656496438939, -37.983837948849974 ], [ 175.355704164048632, -37.985328093606718 ], [ 175.355825576313379, -37.989123083460569 ], [ 175.355863929827791, -37.990321752654566 ], [ 175.356046447025591, -37.996025016958377 ], [ 175.356071429797083, -37.996805548329306 ], [ 175.356117764536521, -37.998253094520159 ], [ 175.356130706448312, -37.998657394909465 ], [ 175.356141675291894, -37.999000051041065 ], [ 175.356202578058713, -38.00090248882227 ], [ 175.356243040070524, -38.002166313253454 ], [ 175.356278996369639, -38.003289335873376 ], [ 175.356412362210904, -38.007454202216778 ], [ 175.356486629568309, -38.009773115285995 ], [ 175.361949841299918, -38.009663451043991 ], [ 175.36375816886391, -38.009627096108829 ], [ 175.366706944346305, -38.00956775368774 ], [ 175.367413023341385, -38.009553533264949 ], [ 175.36740798190209, -38.009396854622615 ], [ 175.367204429590657, -38.003069804738402 ], [ 175.372667101612876, -38.00295965895755 ], [ 175.378129743818334, -38.0028492597068 ], [ 175.378315294871982, -38.008590375922985 ], [ 175.378339298080334, -38.009332937112589 ], [ 175.378389607315569, -38.010889210393465 ], [ 175.378548919606772, -38.015816606368432 ], [ 175.378758608420668, -38.022300267473533 ], [ 175.373294525001995, -38.022410743506775 ], [ 175.367830411735923, -38.022520965894032 ], [ 175.367947499437122, -38.026157149016754 ], [ 175.368039206425664, -38.029004669995018 ], [ 175.368082080071304, -38.03033576735131 ], [ 175.368169415835354, -38.033047007004129 ], [ 175.368248068141071, -38.03548836595256 ], [ 175.368312186746721, -38.037478381303316 ], [ 175.368345554876242, -38.038513932485117 ], [ 175.368358764789321, -38.038923876043128 ], [ 175.368456996905081, -38.041972053765903 ], [ 175.368466911295343, -38.042279675192226 ], [ 175.368665992740716, -38.048455733434189 ], [ 175.368181407488152, -38.048465501853769 ], [ 175.366807622900126, -38.0484931841562 ], [ 175.363199925840433, -38.048565804140303 ], [ 175.361792398262736, -38.048594106453528 ], [ 175.35773382918876, -38.048675620957049 ], [ 175.357541885070532, -38.048679472592326 ], [ 175.352500962930691, -38.048780513618382 ], [ 175.352267702854363, -38.048785183880227 ], [ 175.352118580342477, -38.04878816932267 ], [ 175.347998249457049, -38.048870583699021 ], [ 175.346801546905709, -38.048894492905617 ], [ 175.347008684378153, -38.055378266088951 ], [ 175.347183251389652, -38.060840903677075 ], [ 175.347215888351315, -38.061862031143356 ], [ 175.347417197205317, -38.068159327408083 ], [ 175.347420872664486, -38.068274283938429 ], [ 175.347423158848017, -38.068345788068072 ], [ 175.347427424355459, -38.068479198110879 ], [ 175.347434616991478, -38.068704156418477 ], [ 175.347437040927275, -38.068779967348057 ], [ 175.34744645190699, -38.069074302104255 ], [ 175.347470516340223, -38.069826913950791 ], [ 175.347495107773312, -38.070595978561315 ], [ 175.347507146472424, -38.070972462266916 ], [ 175.34750928355885, -38.071039294184686 ], [ 175.347630495891082, -38.074829536862296 ], [ 175.347710386411393, -38.077327278953767 ], [ 175.347738503389593, -38.078206270182541 ], [ 175.347773063566649, -38.079286635685349 ], [ 175.347779240244535, -38.079479715092603 ], [ 175.34779608094567, -38.080006136337673 ], [ 175.347833494207208, -38.081175583230738 ], [ 175.347834861364817, -38.081218315941186 ], [ 175.347836025582978, -38.081254705380495 ], [ 175.347837899503446, -38.081313277525233 ], [ 175.344238947950942, -38.081385159934527 ], [ 175.344006248835001, -38.081389803871318 ], [ 175.343754220988671, -38.081394833027893 ], [ 175.343670221910969, -38.081396509089558 ], [ 175.342369305516456, -38.081422459034158 ], [ 175.341668108494446, -38.081436440135505 ], [ 175.338355368993859, -38.081502435892219 ], [ 175.33741079003326, -38.081521236481407 ], [ 175.336900682001669, -38.081531386342988 ], [ 175.336694242413984, -38.075047595167042 ], [ 175.331226071467512, -38.075156243103301 ], [ 175.32575787114061, -38.075264636889891 ], [ 175.321071612270828, -38.075357327888909 ], [ 175.320968088738397, -38.075359373401525 ], [ 175.320841310243736, -38.0753618782826 ], [ 175.320696394025077, -38.075364741359905 ], [ 175.320289641501972, -38.075372776522649 ], [ 175.320271279721823, -38.074791898343292 ], [ 175.320269835816674, -38.074746219435156 ], [ 175.320258266996348, -38.07438022830457 ], [ 175.320193276526481, -38.072324066418737 ], [ 175.320140490948432, -38.070653886999033 ], [ 175.320125451887861, -38.070178013284426 ], [ 175.320122989744362, -38.070100103796953 ], [ 175.32011804933299, -38.069943773689836 ], [ 175.320113412721042, -38.069797055643896 ], [ 175.320111516338699, -38.069737047399592 ], [ 175.320105914162838, -38.069559773698323 ], [ 175.320100795724898, -38.069397805900117 ], [ 175.320084713824116, -38.068888901908821 ], [ 175.319748421252285, -38.068895543158099 ], [ 175.319498595840628, -38.068900476193299 ], [ 175.319012898077972, -38.068910065225936 ], [ 175.318225695823287, -38.068925602532786 ], [ 175.315763466526903, -38.068974166400054 ], [ 175.314616936845567, -38.068996762396033 ], [ 175.314605384290388, -38.068630316273271 ], [ 175.314463161557399, -38.064118475670313 ], [ 175.31441255669111, -38.062512854690382 ], [ 175.308945232306996, -38.062620436149814 ], [ 175.308917662239764, -38.061743552536306 ], [ 175.308741399354631, -38.05613649542056 ], [ 175.308537631823043, -38.049652546592903 ], [ 175.305246078406327, -38.049717173681998 ], [ 175.303071241427801, -38.04975982428531 ], [ 175.302977278982752, -38.046762109858633 ], [ 175.302964225361478, -38.046345620601727 ], [ 175.302960165969353, -38.046216099749543 ], [ 175.302950290320751, -38.045900999233623 ], [ 175.302899212866777, -38.044271201477798 ], [ 175.302897195494552, -38.044206827729553 ], [ 175.302868020600471, -38.043275842507342 ], [ 175.303052190274229, -38.043272232846228 ], [ 175.303523531302631, -38.043262993411403 ], [ 175.303617953577856, -38.043261142276812 ], [ 175.308333929689752, -38.043168589667623 ], [ 175.313799809723093, -38.043061082955475 ], [ 175.318706274427285, -38.042964362497671 ], [ 175.319265660631942, -38.042953322375041 ], [ 175.319261930675992, -38.042835135633794 ], [ 175.319162674111965, -38.039689854207467 ], [ 175.319124256156698, -38.038472318794135 ], [ 175.319084953655079, -38.037226674246341 ], [ 175.319083193948558, -38.037170900705014 ], [ 175.319061061600877, -38.036469407225837 ], [ 175.319060363250458, -38.036447272337071 ], [ 175.319059515838774, -38.036420412773602 ], [ 175.319058319456531, -38.036382492178348 ], [ 175.319024027613295, -38.035295545701068 ], [ 175.319009581365691, -38.034837626288294 ], [ 175.31898203471124, -38.03396441925144 ], [ 175.318934841675457, -38.032468349477455 ], [ 175.31892714964502, -38.032224493332443 ], [ 175.318920776871437, -38.032022458612694 ], [ 175.318865733846508, -38.030277356571609 ], [ 175.318859895106186, -38.030092234362051 ], [ 175.318856528231436, -38.029985483971878 ], [ 175.31878673909776, -38.029986861089441 ], [ 175.318138119223335, -38.029999658029382 ], [ 175.317851968634528, -38.030005302495923 ], [ 175.317757167145032, -38.030007172349954 ], [ 175.317022789108705, -38.030021654547902 ], [ 175.316820871923767, -38.030025635622152 ], [ 175.316635713628614, -38.030029285966741 ], [ 175.316556510722876, -38.030030847340974 ], [ 175.315083905974518, -38.030059867948687 ], [ 175.314295149554965, -38.030075404369292 ], [ 175.314136440831419, -38.030078529872192 ], [ 175.3139799167283, -38.030081612142553 ], [ 175.313391639432069, -38.030093194624925 ], [ 175.308533672490654, -38.030188729580296 ], [ 175.307926721528275, -38.030200651527188 ], [ 175.305440458961982, -38.030249454836586 ], [ 175.304390475170578, -38.030270049353959 ], [ 175.303099735374815, -38.030295353226592 ], [ 175.302461774588437, -38.030307854674504 ], [ 175.297051179271676, -38.030413741089284 ], [ 175.296996798681107, -38.030414804062765 ], [ 175.296794254305127, -38.023930773228415 ], [ 175.296778305412488, -38.023420114336076 ], [ 175.296591774929652, -38.017446734308137 ], [ 175.291127731696065, -38.017553380492942 ], [ 175.285663659651675, -38.017659773027908 ], [ 175.285619987230461, -38.017660622362278 ], [ 175.285377244298076, -38.017665342892627 ], [ 175.280199558865007, -38.017765911908931 ], [ 175.280174059211532, -38.016943314706801 ], [ 175.279998586163487, -38.011281790938469 ] ] ], [ [ [ 175.430809364963835, -38.108200178772051 ], [ 175.430762844611706, -38.106797119576846 ], [ 175.430760486387754, -38.106725992663648 ], [ 175.430722438562441, -38.105578389043167 ], [ 175.430696286645116, -38.104789553430813 ], [ 175.430507530297831, -38.09909506752502 ], [ 175.430393861380736, -38.095665074983479 ], [ 175.430349296588872, -38.094320159856764 ], [ 175.430292691012852, -38.092611737805235 ], [ 175.43076624016615, -38.092601937562058 ], [ 175.435761767365676, -38.092498437206864 ], [ 175.441230813002704, -38.092384882363653 ], [ 175.446567164897232, -38.092273836985406 ], [ 175.446699827855326, -38.092271073279946 ], [ 175.446706778173791, -38.092479443915856 ], [ 175.446851613481869, -38.096821117242648 ], [ 175.446916114023963, -38.098754324102941 ], [ 175.447071823001892, -38.103420459955494 ], [ 175.447132469635875, -38.105237566710578 ], [ 175.44713509541927, -38.105316237258968 ], [ 175.447137950808838, -38.105401786639788 ], [ 175.447208084141181, -38.107502913978529 ], [ 175.447272584650278, -38.109435093622942 ], [ 175.44727925199129, -38.109634810153722 ], [ 175.44732661614384, -38.111053520208273 ], [ 175.447348894714935, -38.111720801101981 ], [ 175.447137738884379, -38.111725201834403 ], [ 175.44662805244235, -38.111735822725365 ], [ 175.445621124472183, -38.111756798671266 ], [ 175.444965004686082, -38.111770462062672 ], [ 175.442189715331438, -38.111828215598692 ], [ 175.441878432546702, -38.111834689272641 ], [ 175.436407939562287, -38.111948323026375 ], [ 175.436287694645614, -38.111950817903796 ], [ 175.433205771532471, -38.112014720509194 ], [ 175.432894646149578, -38.112021167087327 ], [ 175.431590215659639, -38.112048186159022 ], [ 175.431308235882852, -38.112054024986975 ], [ 175.430937415830442, -38.112061702358837 ], [ 175.430903312678026, -38.111033354347107 ], [ 175.430863427614781, -38.109830591633148 ], [ 175.430853469651396, -38.109530290880642 ], [ 175.430823886048046, -38.1086381163094 ], [ 175.430817135930454, -38.108434542484432 ], [ 175.430809364963835, -38.108200178772051 ] ] ], [ [ [ 175.430001133889476, -38.047203172186393 ], [ 175.428790745459338, -38.047228200188314 ], [ 175.428699623891106, -38.044471528728799 ], [ 175.428639235204429, -38.042644401123098 ], [ 175.428576457159465, -38.040744804884376 ], [ 175.428506174506907, -38.038617914476951 ], [ 175.428505128669997, -38.038586263710741 ], [ 175.428486947892736, -38.038036040395127 ], [ 175.428470540810707, -38.037539483301771 ], [ 175.428469492973591, -38.037507770302433 ], [ 175.428451349338786, -38.036958641648582 ], [ 175.428450893887856, -38.036944856943457 ], [ 175.428446340918384, -38.036807055978066 ], [ 175.428362237626374, -38.034261401386061 ], [ 175.42834717157416, -38.033805345208052 ], [ 175.428314917033248, -38.032828950990186 ], [ 175.428303815419468, -38.032492877225096 ], [ 175.428218911900814, -38.029922448575604 ], [ 175.428148086836529, -38.027777989694179 ], [ 175.430150471944273, -38.027736596141935 ], [ 175.433612348626667, -38.027664951246415 ], [ 175.437286751093069, -38.027588796385928 ], [ 175.438560160959668, -38.027562377141855 ], [ 175.439076579806311, -38.027551659141267 ], [ 175.444540780307051, -38.027438113383035 ], [ 175.444828632608278, -38.027432124778727 ], [ 175.450004950060418, -38.027324313976173 ], [ 175.455469088998086, -38.027210260924996 ], [ 175.4556856434954, -38.033693541057026 ], [ 175.455781831319428, -38.036572574062681 ], [ 175.455796002454946, -38.036996700697657 ], [ 175.455818745140476, -38.037677345793263 ], [ 175.455821857808871, -38.037770500215707 ], [ 175.455902267505991, -38.040176812972632 ], [ 175.456118961053676, -38.046660076671003 ], [ 175.45065337949282, -38.046774209024058 ], [ 175.446263967355264, -38.046865684551719 ], [ 175.445424823925606, -38.046883153648061 ], [ 175.445187767084491, -38.046888087556674 ], [ 175.442643045464877, -38.046941021176679 ], [ 175.441450700739665, -38.046965804566895 ], [ 175.440573515552785, -38.046984029500805 ], [ 175.440212647368242, -38.046991525215226 ], [ 175.43972212389707, -38.047001712264517 ], [ 175.439541105725112, -38.047005471079707 ], [ 175.434256449999253, -38.047115083143161 ], [ 175.433661663029653, -38.047127405065474 ], [ 175.432205610496283, -38.047157556703837 ], [ 175.432048579452783, -38.047160807391776 ], [ 175.431597218934797, -38.047170149802675 ], [ 175.43114714342363, -38.047179463888114 ], [ 175.430990559344252, -38.047182703911979 ], [ 175.430172135833516, -38.04719963526005 ], [ 175.430001133889476, -38.047203172186393 ] ] ], [ [ [ 175.424518018319048, -37.917558738100084 ], [ 175.424305100886784, -37.911075179062387 ], [ 175.424130101937919, -37.905744713643479 ], [ 175.424092251751802, -37.904591611846527 ], [ 175.419494502995946, -37.904686268253322 ], [ 175.418637064912048, -37.904703900910519 ], [ 175.417161483540667, -37.904734230639171 ], [ 175.416444913940524, -37.904748952634407 ], [ 175.415788537705652, -37.904762434117508 ], [ 175.414812130821758, -37.904782482012251 ], [ 175.413181847796324, -37.90481593742188 ], [ 175.411372358501268, -37.904853043888174 ], [ 175.407726600472614, -37.904927721376289 ], [ 175.407707268092167, -37.904334735955729 ], [ 175.407515252753171, -37.898444068021988 ], [ 175.407513142676777, -37.8983793252875 ], [ 175.407303972825588, -37.891960406504609 ], [ 175.401849650677917, -37.892071886162235 ], [ 175.399614718919054, -37.892117492336666 ], [ 175.399464154027498, -37.892120563246792 ], [ 175.396395298478836, -37.892183113371352 ], [ 175.390940916296273, -37.892294088127706 ], [ 175.385486504198099, -37.892404810427024 ], [ 175.385377751042995, -37.88903611396038 ], [ 175.385357021303832, -37.88839393345804 ], [ 175.38527720181537, -37.885921037653944 ], [ 175.390731136454065, -37.885810341040276 ], [ 175.396185041187493, -37.88569939202803 ], [ 175.395974851335922, -37.879215662532104 ], [ 175.396668118740507, -37.879201543280239 ], [ 175.398502081425278, -37.879164172641559 ], [ 175.399473272075767, -37.879144371113981 ], [ 175.401428248809992, -37.87910448692373 ], [ 175.406881616253145, -37.878993058983802 ], [ 175.406760166917394, -37.875262729912336 ], [ 175.406677572251425, -37.872725431173841 ], [ 175.406670539562015, -37.872509372981987 ], [ 175.406852746784637, -37.872505646137618 ], [ 175.407096100502486, -37.872500668169877 ], [ 175.412123399793558, -37.872397718625415 ], [ 175.414388999907317, -37.872351253173754 ], [ 175.414768417458987, -37.87234346738817 ], [ 175.41514560323165, -37.872335726185923 ], [ 175.415323629329379, -37.872332072032798 ], [ 175.4175762298687, -37.872285812004314 ], [ 175.418496931763627, -37.872266891790829 ], [ 175.423029029719544, -37.872173653122985 ], [ 175.422816589878437, -37.865690036855135 ], [ 175.422809259417789, -37.865466275570427 ], [ 175.422764566176681, -37.864101966840956 ], [ 175.422746096754594, -37.863538141085243 ], [ 175.422723411508457, -37.862845595047233 ], [ 175.422716038317333, -37.862620497614024 ], [ 175.422707837610716, -37.862370133860388 ], [ 175.422604218171443, -37.859206412414792 ], [ 175.422538906726942, -37.857212059919334 ], [ 175.42246058335158, -37.854820114123847 ], [ 175.422416810991223, -37.853483210439492 ], [ 175.422391914575286, -37.852722779802782 ], [ 175.422237993189754, -37.848020801193044 ], [ 175.42219417603971, -37.84668207746698 ], [ 175.422182881295839, -37.846336980310433 ], [ 175.422179679066716, -37.846239139019914 ], [ 175.422127986089549, -37.844659639837865 ], [ 175.422102891133619, -37.843892808942975 ], [ 175.4220842573759, -37.843323395100931 ], [ 175.422023892158506, -37.841478632947059 ], [ 175.421967511622512, -37.839755490066999 ], [ 175.424295705467898, -37.839707558974837 ], [ 175.42691171472859, -37.839653647569961 ], [ 175.427417898061918, -37.839643209292291 ], [ 175.428727831963329, -37.8396161863297 ], [ 175.429151150783753, -37.839607450457848 ], [ 175.429486616934753, -37.83960052648645 ], [ 175.429488359075492, -37.839600490526422 ], [ 175.429803320641525, -37.839593988891004 ], [ 175.429810466989238, -37.839593841361797 ], [ 175.43010187262766, -37.839587825213798 ], [ 175.432868254193068, -37.839530676558105 ], [ 175.438318579948174, -37.839417891868749 ], [ 175.440754165994775, -37.839367410140561 ], [ 175.440857305877188, -37.839365271275135 ], [ 175.440901590833789, -37.839364352887181 ], [ 175.441415867550205, -37.839353686519644 ], [ 175.441926190369372, -37.839343099935064 ], [ 175.442583741002096, -37.839329455862661 ], [ 175.443768875259536, -37.839304855228569 ], [ 175.446655073282983, -37.839244894505526 ], [ 175.447793426827417, -37.839221225749547 ], [ 175.447914550454698, -37.839218706686921 ], [ 175.44921914005937, -37.839191566641865 ], [ 175.449556721659775, -37.839184541402261 ], [ 175.450434279033573, -37.839166274466955 ], [ 175.451328092507424, -37.839147662419059 ], [ 175.454669374279973, -37.839078026113 ], [ 175.454860453753128, -37.839074040918824 ], [ 175.456291567571157, -37.83904418343441 ], [ 175.457047416762094, -37.839028407042214 ], [ 175.457201586150489, -37.839025188559468 ], [ 175.457344275764797, -37.839022209551587 ], [ 175.457457143395374, -37.839019853030671 ], [ 175.457624049174086, -37.839016368069018 ], [ 175.458266424732102, -37.839002953176525 ], [ 175.45829979905821, -37.839002256116082 ], [ 175.458600750870943, -37.838995969970298 ], [ 175.45880150338823, -37.838991776314025 ], [ 175.459071060268514, -37.838986144817504 ], [ 175.459245913291142, -37.838982491513455 ], [ 175.459685732549701, -37.838973300969187 ], [ 175.459767071607047, -37.838971601113037 ], [ 175.459876342708668, -37.838969317433303 ], [ 175.459914326231711, -37.838968523583887 ], [ 175.459915164587613, -37.838968506062251 ], [ 175.460019401986415, -37.838966327453896 ], [ 175.460119577853533, -37.838964233646323 ], [ 175.460854731078342, -37.838948865364785 ], [ 175.461444291991455, -37.838936537350989 ], [ 175.461858570747097, -37.838927872806792 ], [ 175.462189278127624, -37.838920955091098 ], [ 175.462357307962691, -37.838917439897543 ], [ 175.465084755401364, -37.838860347969444 ], [ 175.465569750712376, -37.838850189246195 ], [ 175.467214544857171, -37.838815722455898 ], [ 175.468267534473142, -37.838793644898558 ], [ 175.468363613955006, -37.838791629974125 ], [ 175.468425232571377, -37.8387903377021 ], [ 175.468531091691432, -37.838788117538279 ], [ 175.468657618857719, -37.838785463782322 ], [ 175.468840947366971, -37.838781618444642 ], [ 175.469017593009994, -37.838777913010546 ], [ 175.469402266275665, -37.838769842935498 ], [ 175.469601731135924, -37.838765657859263 ], [ 175.470719008122614, -37.838742209433562 ], [ 175.471019892788718, -37.838735892916972 ], [ 175.471083034947668, -37.838734567266506 ], [ 175.471533706177865, -37.838725104576312 ], [ 175.472905237339006, -37.838696296074303 ], [ 175.473964346120596, -37.838674038943488 ], [ 175.474720131139861, -37.838658150318317 ], [ 175.475039867298989, -37.838651427145955 ], [ 175.475582351002885, -37.838640018216516 ], [ 175.475956470621867, -37.838632148680155 ], [ 175.47645119662775, -37.838621740383466 ], [ 175.476466106907623, -37.83862142666112 ], [ 175.476470004014828, -37.838621344663061 ], [ 175.476471555942851, -37.838667734506949 ], [ 175.476483373734851, -37.839020985482875 ], [ 175.476492245927233, -37.83928618413227 ], [ 175.47649891291411, -37.839485464700232 ], [ 175.476501379858718, -37.83955920277549 ], [ 175.476503502440266, -37.839622647469838 ], [ 175.476508959846399, -37.839785770303884 ], [ 175.476515489760914, -37.839980948865069 ], [ 175.476542108838061, -37.8407765711286 ], [ 175.47654727281892, -37.840930914617218 ], [ 175.476561687161649, -37.841361731009933 ], [ 175.476597921581771, -37.842444665950453 ], [ 175.476599913132247, -37.842504185556308 ], [ 175.476605964957486, -37.842685049715854 ], [ 175.476660555451787, -37.84431646158891 ], [ 175.476671019459616, -37.844629158564594 ], [ 175.476686934178076, -37.845104730352574 ], [ 175.476688366696976, -37.845104700206903 ], [ 175.47745073048975, -37.845088654683266 ], [ 175.478192409716485, -37.845073039766191 ], [ 175.479077351852453, -37.845054402548286 ], [ 175.479373945817144, -37.845048154676626 ], [ 175.482137490700495, -37.844989903530823 ], [ 175.482181445601555, -37.846300445839532 ], [ 175.48225342261216, -37.848446300317612 ], [ 175.482341224899983, -37.851063645017099 ], [ 175.482354966819571, -37.851473254352804 ], [ 175.48257251270411, -37.857956596953912 ], [ 175.488023991094934, -37.857841464732182 ], [ 175.490331321672954, -37.857792659055612 ], [ 175.490398299012639, -37.857791241645089 ], [ 175.490654258766369, -37.857785824535462 ], [ 175.490732436250482, -37.857784169883011 ], [ 175.493475438400509, -37.857726080423753 ], [ 175.493556090590744, -37.860118661089118 ], [ 175.493572544338235, -37.860606733414059 ], [ 175.493579698778859, -37.860818953988186 ], [ 175.493643389018871, -37.862708084758289 ], [ 175.493661284906807, -37.863238866881915 ], [ 175.493694007385983, -37.864209361305278 ], [ 175.495126356718629, -37.864178998150727 ], [ 175.495681866846212, -37.864167217668253 ], [ 175.495965668855973, -37.86416119817887 ], [ 175.496416305270117, -37.864151638695681 ], [ 175.496988883820819, -37.864139489926487 ], [ 175.498356613637952, -37.864110458633355 ], [ 175.499145900178434, -37.864093698077966 ], [ 175.501442312437575, -37.864044903467494 ], [ 175.501547433215961, -37.864042668767354 ], [ 175.503112913745724, -37.864009378025493 ], [ 175.504421953216735, -37.863981524631541 ], [ 175.504597761739376, -37.863977782714386 ], [ 175.504628678640728, -37.863977124650368 ], [ 175.505463786283372, -37.863959346368866 ], [ 175.505568300582837, -37.863957120987003 ], [ 175.50581179859978, -37.863951935919168 ], [ 175.505885049424535, -37.86395037601109 ], [ 175.510049592000996, -37.86386161521898 ], [ 175.510907589208756, -37.863843310007837 ], [ 175.511340442810223, -37.863834072780442 ], [ 175.511650578631333, -37.863827453407843 ], [ 175.512096862265366, -37.863817926733759 ], [ 175.515501390895508, -37.863745195596209 ], [ 175.520953158355098, -37.863628523850515 ], [ 175.520780391448454, -37.858559398555087 ], [ 175.520732206276961, -37.857145377736067 ], [ 175.520669599520886, -37.855307999091167 ], [ 175.520511325055821, -37.850662223367451 ], [ 175.525501552084364, -37.850555238255112 ], [ 175.525962107992427, -37.850545353755962 ], [ 175.526017297828844, -37.850544169144882 ], [ 175.527601296361581, -37.85051015868784 ], [ 175.527840962032855, -37.850505010903461 ], [ 175.531412859380055, -37.850428232147337 ], [ 175.536863579150889, -37.850310858546074 ], [ 175.537085889641247, -37.856793931367527 ], [ 175.537154833846557, -37.858804075093687 ], [ 175.537308271446079, -37.863276995920792 ], [ 175.53185659869817, -37.86339442400832 ], [ 175.528311399247372, -37.863470651346944 ], [ 175.5279234110549, -37.86347898721074 ], [ 175.526404894311895, -37.863511599986403 ], [ 175.526528909693013, -37.867141683582588 ], [ 175.526626394010094, -37.869994710712525 ], [ 175.526079057731664, -37.870006462597154 ], [ 175.521174181314365, -37.870111661709984 ], [ 175.515721937105127, -37.870228360530582 ], [ 175.515942554067522, -37.876711517213785 ], [ 175.516163241806822, -37.883194665644986 ], [ 175.512279398077453, -37.883277664503908 ], [ 175.510710012173149, -37.883311166331204 ], [ 175.505256751140195, -37.883427414714774 ], [ 175.505476555233003, -37.889910608895605 ], [ 175.510930293495164, -37.889794333540017 ], [ 175.51257775212548, -37.889759159459103 ], [ 175.512969762196889, -37.88975078644367 ], [ 175.512998422819464, -37.889750174224858 ], [ 175.513376288201215, -37.889742101998905 ], [ 175.51638400034733, -37.889677805823311 ], [ 175.521837675721486, -37.889561025749941 ], [ 175.522058982447732, -37.896044130580954 ], [ 175.525805435346854, -37.895963749206196 ], [ 175.52726842544584, -37.895932327853487 ], [ 175.527513103625807, -37.895927071003328 ], [ 175.527734958856939, -37.902410140418354 ], [ 175.527827851546618, -37.902408144220239 ], [ 175.533189525902202, -37.902292801219332 ], [ 175.538644061244185, -37.902175209560212 ], [ 175.538866942933112, -37.908658216212132 ], [ 175.542226103709197, -37.908585661284185 ], [ 175.543044601260107, -37.908567967906862 ], [ 175.544072162857447, -37.908545747143066 ], [ 175.544321924126734, -37.908540344760489 ], [ 175.544977813364142, -37.908526155227449 ], [ 175.549776873470364, -37.908422220799309 ], [ 175.555231790895959, -37.908303844333084 ], [ 175.55714479306323, -37.908262270550509 ], [ 175.55744795598423, -37.908255679288978 ], [ 175.558430850527714, -37.908234304163749 ], [ 175.559204842934378, -37.908217466272895 ], [ 175.560686676335621, -37.908185215366366 ], [ 175.560893815496513, -37.914157161744399 ], [ 175.56091154057188, -37.9146681040259 ], [ 175.560924411567498, -37.915039114679054 ], [ 175.56113647695409, -37.921150984390593 ], [ 175.561361485506893, -37.927633856459607 ], [ 175.561586566255045, -37.934116720232055 ], [ 175.561618067853971, -37.935023875062882 ], [ 175.561788943026642, -37.939943872967035 ], [ 175.561789636606505, -37.939963840717347 ], [ 175.561811719223158, -37.940599575707097 ], [ 175.565172306524346, -37.940526313189793 ], [ 175.567268962799204, -37.940480556319059 ], [ 175.568974039255522, -37.940443317595381 ], [ 175.5716295162091, -37.940385272926882 ], [ 175.572552595882456, -37.940365081757555 ], [ 175.572726174198408, -37.940361284147151 ], [ 175.578183353352728, -37.940241759195935 ], [ 175.583640500194093, -37.940121981470007 ], [ 175.584157638173878, -37.940110617772675 ], [ 175.584810507779906, -37.94009626822951 ], [ 175.589097614654435, -37.940001950974001 ], [ 175.589871732021692, -37.939984903554176 ], [ 175.590675492540782, -37.939967197942757 ], [ 175.594554696665739, -37.939881667712484 ], [ 175.596399965141757, -37.939840937545704 ], [ 175.596971901481311, -37.939828307448821 ], [ 175.600011746159879, -37.939761131690084 ], [ 175.60546876306887, -37.939640342911432 ], [ 175.605697815950379, -37.946122967654354 ], [ 175.606460997332022, -37.946106052312579 ], [ 175.611155278614717, -37.946001898056494 ], [ 175.611224840169712, -37.946000353250696 ], [ 175.616612708546569, -37.945880575653163 ], [ 175.617738679983518, -37.945855512986988 ], [ 175.622070105677921, -37.945759000448994 ], [ 175.62273562483648, -37.94574415724108 ], [ 175.627527469940617, -37.94563717244867 ], [ 175.628721613420396, -37.94561048106381 ], [ 175.63298480126673, -37.945515091656858 ], [ 175.638442099588104, -37.945392758078235 ], [ 175.64389936483667, -37.945270171717539 ], [ 175.645454259434871, -37.945235197766053 ], [ 175.649356596944472, -37.945147332579424 ], [ 175.650345516568365, -37.945125045437415 ], [ 175.651746302973038, -37.945093461863742 ], [ 175.65481379584341, -37.945024240668637 ], [ 175.656423958345385, -37.944987873603949 ], [ 175.657843892583855, -37.944955784713656 ], [ 175.660186182546113, -37.944902814129982 ], [ 175.660270961465415, -37.944900895989882 ], [ 175.660323281203461, -37.946351001658314 ], [ 175.6603413365481, -37.946851403415465 ], [ 175.660393317808229, -37.948291988470672 ], [ 175.660504872951833, -37.951383229037397 ], [ 175.660738859490067, -37.957865553697417 ], [ 175.660972921105866, -37.964347869969018 ], [ 175.661083223647182, -37.967401965642416 ], [ 175.661207057824868, -37.970830177851319 ], [ 175.661428542969333, -37.976960293025869 ], [ 175.661435975421966, -37.977165971014244 ], [ 175.661441269672878, -37.977312477343425 ], [ 175.661675556675533, -37.983794768444433 ], [ 175.661768468296572, -37.986364884227406 ], [ 175.66190991885864, -37.990277051153448 ], [ 175.662092614689954, -37.995328833195657 ], [ 175.662092808790504, -37.995334199659062 ], [ 175.662144356247921, -37.996759325469604 ], [ 175.661763880250135, -37.996767943262221 ], [ 175.661272394210442, -37.996779073610632 ], [ 175.660388560047409, -37.996799084022541 ], [ 175.660111961588854, -37.996805344972017 ], [ 175.660053009807399, -37.996806679291915 ], [ 175.656683358654476, -37.996882899079864 ], [ 175.651222327692835, -37.99700621945378 ], [ 175.650988849381378, -37.990523887928639 ], [ 175.650832713738083, -37.986187745915537 ], [ 175.650755445969196, -37.984041548020535 ], [ 175.65052211743054, -37.977559199730365 ], [ 175.650482794431156, -37.976466520018441 ], [ 175.650288863739888, -37.971076843058981 ], [ 175.65017830605828, -37.968003603370562 ], [ 175.650055684871575, -37.964594478007321 ], [ 175.649912461471956, -37.960611836703059 ], [ 175.649838737814576, -37.958561481123688 ], [ 175.649822580799935, -37.958112104576252 ], [ 175.64908449775163, -37.958128738019262 ], [ 175.648491885431412, -37.958142089776366 ], [ 175.646113404582422, -37.95819564767676 ], [ 175.644364391573419, -37.958235000683445 ], [ 175.642616851388425, -37.958274294540466 ], [ 175.639772651735683, -37.958338191453052 ], [ 175.6389061691834, -37.958357643896193 ], [ 175.633447913697978, -37.958480034209799 ], [ 175.627989625185222, -37.958602171619575 ], [ 175.627931078218865, -37.958603480321031 ], [ 175.626444243801672, -37.95863670577824 ], [ 175.622531303713259, -37.958724056120793 ], [ 175.617072949350217, -37.958845687708809 ], [ 175.613990563737246, -37.958914262183249 ], [ 175.611778951017669, -37.958963414553018 ], [ 175.611614562164164, -37.958967066378932 ], [ 175.606156142223256, -37.959088192126501 ], [ 175.600697689595592, -37.959209064946862 ], [ 175.599318743088077, -37.959239560418304 ], [ 175.597807782845223, -37.95927295679332 ], [ 175.597158965970038, -37.959287291465024 ], [ 175.595239204349326, -37.959329684835382 ], [ 175.594539413960121, -37.959345130239079 ], [ 175.592629136279129, -37.959387271655274 ], [ 175.591508199415074, -37.959411985464548 ], [ 175.590886090816213, -37.959425696762487 ], [ 175.590236766577448, -37.95944000438007 ], [ 175.589780686552473, -37.959450051787428 ], [ 175.588200746100142, -37.959484844059702 ], [ 175.585699262324709, -37.959539886414575 ], [ 175.584322136273215, -37.959570165798382 ], [ 175.583427507779845, -37.95958982767754 ], [ 175.583110057774206, -37.959596802861597 ], [ 175.58231630445448, -37.959614239886541 ], [ 175.581646592270118, -37.959628947827078 ], [ 175.581325798228363, -37.959635991619919 ], [ 175.580949974769538, -37.959644242599524 ], [ 175.578863553579708, -37.959690026863612 ], [ 175.578895941276272, -37.960615586500253 ], [ 175.578967466002808, -37.962659434111274 ], [ 175.578984223817997, -37.963138265357465 ], [ 175.579010273844773, -37.963882585999393 ], [ 175.579021891277961, -37.964214519021986 ], [ 175.579025000764233, -37.964303362259955 ], [ 175.579025438133328, -37.964315858597388 ], [ 175.579030715987358, -37.964466654748001 ], [ 175.579090432513169, -37.966172766123556 ], [ 175.579280670865131, -37.971606944317124 ], [ 175.579317384250345, -37.972655497067407 ], [ 175.576445531979687, -37.972718474308515 ], [ 175.576320054540616, -37.972721224319379 ], [ 175.575497863724337, -37.972739240446316 ], [ 175.575130966591985, -37.972747278164796 ], [ 175.574084452417765, -37.972770198147792 ], [ 175.573857811187452, -37.972775160648794 ], [ 175.568398205824366, -37.972894571158143 ], [ 175.568278707991198, -37.969466950651082 ], [ 175.56821248092271, -37.967567072632342 ], [ 175.568207327466212, -37.967419226183992 ], [ 175.568172212274845, -37.966411784801601 ], [ 175.564878702290798, -37.966483686172943 ], [ 175.563727093797212, -37.966508805411472 ], [ 175.562713053790247, -37.966530914615838 ], [ 175.562693460813847, -37.965967581021786 ], [ 175.562684747842866, -37.965717062244089 ], [ 175.562680113896647, -37.965583823924831 ], [ 175.562649009129103, -37.964689456021688 ], [ 175.562648265339874, -37.964668069063954 ], [ 175.562641491072611, -37.964473280352905 ], [ 175.562636818835301, -37.964338932755773 ], [ 175.562624291250501, -37.963978704564717 ], [ 175.562617740028742, -37.963790322927501 ], [ 175.562590528716072, -37.963007837545582 ], [ 175.562587216355354, -37.962912585603668 ], [ 175.562586172855163, -37.962882578085058 ], [ 175.562555849769524, -37.962010569645884 ], [ 175.56248761169482, -37.960048092339072 ], [ 175.562028297973825, -37.960058102473795 ], [ 175.561587257956802, -37.960067712667097 ], [ 175.561480637591785, -37.960070035659719 ], [ 175.561399365419874, -37.960071806313231 ], [ 175.561296106856389, -37.960074055896861 ], [ 175.561268178487865, -37.960074664326683 ], [ 175.561096546740799, -37.960078403241951 ], [ 175.560859034683347, -37.960083576914521 ], [ 175.5607801625778, -37.960085294861919 ], [ 175.56028241685317, -37.960096135254901 ], [ 175.560127935771078, -37.960099499266072 ], [ 175.559610651071353, -37.960110762282767 ], [ 175.559487385918146, -37.960113445841024 ], [ 175.559320613681933, -37.960117076369386 ], [ 175.55923640550796, -37.960118909439245 ], [ 175.558856041930767, -37.960127188560399 ], [ 175.558072735739074, -37.960144234385766 ], [ 175.557876718612135, -37.960148499172277 ], [ 175.557028900025529, -37.960166941575523 ], [ 175.556397721443545, -37.96018066748497 ], [ 175.555969204852062, -37.960189984277598 ], [ 175.555915734473217, -37.960191146718998 ], [ 175.555119407858911, -37.960208455910028 ], [ 175.554700474740173, -37.960217559797307 ], [ 175.55434188986905, -37.96022535106264 ], [ 175.554310914210191, -37.960226024044623 ], [ 175.554092984916366, -37.960230758579513 ], [ 175.55387910173792, -37.960235404819038 ], [ 175.553539857830998, -37.960242773503353 ], [ 175.551570156282594, -37.960285537843333 ], [ 175.551536442424094, -37.95931173499384 ], [ 175.551509111930699, -37.958522276905782 ], [ 175.551503080700314, -37.958348056941446 ], [ 175.55148976840573, -37.957963508590829 ], [ 175.551446490785679, -37.956713309898412 ], [ 175.551436011549384, -37.956410575299003 ], [ 175.551397513850475, -37.955298376391816 ], [ 175.551384392994663, -37.954919300691969 ], [ 175.551362330657469, -37.954281879839279 ], [ 175.551345744146573, -37.953802652223487 ], [ 175.551344939378538, -37.953779400083668 ], [ 175.551340410858103, -37.953648557167661 ], [ 175.551337298293305, -37.953558625081605 ], [ 175.551336028607409, -37.953521939625418 ], [ 175.551328039712331, -37.953291112292817 ], [ 175.55129386985368, -37.95230379477848 ], [ 175.551250632105365, -37.951054396622659 ], [ 175.551204161769817, -37.949711503131866 ], [ 175.551168158859383, -37.948671034276423 ], [ 175.551140394236967, -37.947868611718107 ], [ 175.551130387321535, -37.947579395018309 ], [ 175.551121403998195, -37.947319758313206 ], [ 175.550482195489451, -37.947333625121288 ], [ 175.550298008639714, -37.947337620173109 ], [ 175.550098060781153, -37.947341956757668 ], [ 175.550001659831253, -37.947344047435529 ], [ 175.548912311835011, -37.947367666972276 ], [ 175.54640087343185, -37.947422082169112 ], [ 175.546366181334065, -37.947422833464941 ], [ 175.545971387472235, -37.947431382441991 ], [ 175.545868298012863, -37.947433614551628 ], [ 175.545663585769915, -37.947438046746022 ], [ 175.545228481800706, -37.947447465932697 ], [ 175.544034212116173, -37.947473311354742 ], [ 175.543240406220008, -37.947490483545714 ], [ 175.540205735626103, -37.947556082318222 ], [ 175.540084324415005, -37.94403164593669 ], [ 175.53998242451209, -37.941073125329254 ], [ 175.537787292979573, -37.941120520562414 ], [ 175.537489876794126, -37.941126938940521 ], [ 175.534525021072938, -37.941190880729572 ], [ 175.531731145599991, -37.94125106658997 ], [ 175.531545125823243, -37.941255071481997 ], [ 175.53031197659007, -37.941281612983218 ], [ 175.52907165738867, -37.941308295750353 ], [ 175.529067585865391, -37.941308383318749 ], [ 175.529059879223752, -37.941083649006607 ], [ 175.528958516494669, -37.93812756458842 ], [ 175.528941558288722, -37.937632962812678 ], [ 175.528875561912486, -37.935708001706047 ], [ 175.528865613490382, -37.935417813356601 ], [ 175.528845303191957, -37.934825363505034 ], [ 175.528623091819838, -37.928342335422315 ], [ 175.528579437825613, -37.927068482481879 ], [ 175.52854656158209, -37.926109078339557 ], [ 175.528400951724649, -37.921859299071457 ], [ 175.528320917110449, -37.921861019644695 ], [ 175.52294491961905, -37.921976467304262 ], [ 175.517488855913655, -37.922093382892484 ], [ 175.513853866802435, -37.922171134868996 ], [ 175.512864498469327, -37.922192277870984 ], [ 175.512032760676504, -37.922210045831619 ], [ 175.512087588975561, -37.923820794035962 ], [ 175.512150965901355, -37.925682523581045 ], [ 175.512253466396345, -37.928693163533566 ], [ 175.511857272037986, -37.928701626368479 ], [ 175.506796861548764, -37.92880960081915 ], [ 175.501340225294712, -37.928925785388188 ], [ 175.501155762371582, -37.92892970860828 ], [ 175.499259189025537, -37.928970028780356 ], [ 175.4988306866247, -37.92897913428132 ], [ 175.498039665760444, -37.928995939046835 ], [ 175.498039394453883, -37.928995944809664 ], [ 175.498038931486235, -37.928995954643575 ], [ 175.4958835577022, -37.92904171723621 ], [ 175.490426858839328, -37.929157396358811 ], [ 175.485406419164775, -37.929263603206294 ], [ 175.484971187521239, -37.92927280038036 ], [ 175.484970128774194, -37.929272822751493 ], [ 175.482629010596554, -37.929322266824883 ], [ 175.482215422144236, -37.929330996904753 ], [ 175.481844295086518, -37.929338829464704 ], [ 175.481248689034487, -37.929351397157546 ], [ 175.479513367574697, -37.929387996409858 ], [ 175.479074443477941, -37.929397249593009 ], [ 175.474056575309049, -37.929502917329486 ], [ 175.469154281447373, -37.929605944345099 ], [ 175.468599752045208, -37.92961758550593 ], [ 175.467094824077805, -37.929649165068149 ], [ 175.466219534448044, -37.929667523370604 ], [ 175.466091406758238, -37.929670210170492 ], [ 175.465921429023638, -37.929673774337864 ], [ 175.465644170317262, -37.929679587491911 ], [ 175.463142897851299, -37.929732000934841 ], [ 175.457686012795364, -37.929846163611792 ], [ 175.453595118633501, -37.929931582407249 ], [ 175.452229096945445, -37.929960073532399 ], [ 175.452095537774653, -37.929962858324913 ], [ 175.450170132157211, -37.930002987372546 ], [ 175.449604757187188, -37.930014764850682 ], [ 175.44677215036964, -37.9300737306923 ], [ 175.441315173136019, -37.930187135087138 ], [ 175.438269322530118, -37.93025032236374 ], [ 175.438068217224384, -37.930254491588038 ], [ 175.435858165312652, -37.930300286712551 ], [ 175.433981029578945, -37.930339150741297 ], [ 175.433002899043402, -37.930359389974392 ], [ 175.432937504487882, -37.930360742811878 ], [ 175.431842842025617, -37.930383383031334 ], [ 175.43040112696761, -37.930413185564205 ], [ 175.424944058168961, -37.930525831637723 ], [ 175.419486958984805, -37.930638224928835 ], [ 175.4192743832036, -37.924154656186367 ], [ 175.419061875613266, -37.917671079268651 ], [ 175.424518018319048, -37.917558738100084 ] ] ], [ [ [ 175.526976536549228, -38.14895996797236 ], [ 175.525272678058201, -38.148996635929926 ], [ 175.523698521451337, -38.149030490634011 ], [ 175.519799756630135, -38.149114248713047 ], [ 175.515171062351556, -38.149213519765375 ], [ 175.514326803358273, -38.149231606788589 ], [ 175.51410415955047, -38.142748743037309 ], [ 175.513881587211785, -38.136265871008959 ], [ 175.51935357387552, -38.13614856724827 ], [ 175.522686036621764, -38.136077003697494 ], [ 175.524825528717344, -38.136031008897717 ], [ 175.527113718905554, -38.135981774198918 ], [ 175.530297451668446, -38.13591319596177 ], [ 175.533720287911933, -38.135839370993203 ], [ 175.535769342660075, -38.135795128445011 ], [ 175.541241201623393, -38.135676806351988 ], [ 175.545386145048866, -38.135587007224139 ], [ 175.546713028489705, -38.135558229687227 ], [ 175.5469385000236, -38.142040937902486 ], [ 175.54715965028052, -38.148397372494742 ], [ 175.547164043955547, -38.148523637812147 ], [ 175.5416912505911, -38.148642269380261 ], [ 175.537743389301596, -38.148727687043589 ], [ 175.536259360201967, -38.148759761783353 ], [ 175.536218425107506, -38.148760646258971 ], [ 175.530745567573575, -38.148878768443709 ], [ 175.526976536549228, -38.14895996797236 ] ] ], [ [ [ 175.549561808035349, -38.060031321076757 ], [ 175.549479016906616, -38.057646582068088 ], [ 175.549257458732029, -38.051263367189392 ], [ 175.54925400313283, -38.05116379340312 ], [ 175.554719498717276, -38.051045065543128 ], [ 175.557982966728048, -38.050974051342735 ], [ 175.559052447337876, -38.050950759332224 ], [ 175.559948974907115, -38.050931226524092 ], [ 175.560184962142216, -38.050926083889095 ], [ 175.560658817337981, -38.050915756201462 ], [ 175.565650393339268, -38.05080684844566 ], [ 175.571115792239993, -38.05068735921737 ], [ 175.571342730515397, -38.057170037511284 ], [ 175.571569741636694, -38.063652707486682 ], [ 175.571719247870703, -38.067920959363576 ], [ 175.571756806198579, -38.06899306935825 ], [ 175.571796825628809, -38.07013536914269 ], [ 175.572023982516811, -38.076618022478449 ], [ 175.566556658256104, -38.076737622458872 ], [ 175.561758838527169, -38.076842366904572 ], [ 175.561089301654675, -38.076856968419584 ], [ 175.560230567775307, -38.076875690423208 ], [ 175.560133840014032, -38.076877798875415 ], [ 175.559313250866637, -38.076895682704695 ], [ 175.558357028990144, -38.076916515259519 ], [ 175.555621912781049, -38.076976060355996 ], [ 175.550154491703864, -38.077094898263518 ], [ 175.550076681566338, -38.074855541413065 ], [ 175.549929261167364, -38.070612134499143 ], [ 175.549752517311532, -38.065523489532907 ], [ 175.549704102909857, -38.064129362433711 ], [ 175.549561808035349, -38.060031321076757 ] ] ], [ [ [ 175.530526234202199, -37.824495749280253 ], [ 175.526084871773776, -37.824591145690462 ], [ 175.525077386982872, -37.824612762206193 ], [ 175.524912122792074, -37.824616307277942 ], [ 175.52410748996914, -37.824633564088231 ], [ 175.51962850825754, -37.824729523368497 ], [ 175.514179598093961, -37.824846032762686 ], [ 175.513978352231192, -37.81891695207203 ], [ 175.513959546477963, -37.818362810093788 ], [ 175.513910913238334, -37.816929682198818 ], [ 175.513739565421901, -37.811879579180477 ], [ 175.519187524372086, -37.811763123866172 ], [ 175.519059524302293, -37.807997930146605 ], [ 175.519003257898589, -37.806342599591986 ], [ 175.519000063998391, -37.806248632501806 ], [ 175.518967138473329, -37.805279911742282 ], [ 175.518950204326103, -37.804781664334776 ], [ 175.518888343214968, -37.802961442019644 ], [ 175.518826540681232, -37.801142778989458 ], [ 175.518813341892582, -37.800754356978707 ], [ 175.518746823238416, -37.79879669137101 ], [ 175.52000815571941, -37.798769701037415 ], [ 175.52289313836539, -37.798707916556857 ], [ 175.523029420606974, -37.798704996200897 ], [ 175.523189206019083, -37.798701572000667 ], [ 175.523213330029648, -37.798701055004436 ], [ 175.524193800188442, -37.798680038583214 ], [ 175.524617134297188, -37.798670961872041 ], [ 175.524828607078888, -37.798666427111286 ], [ 175.525251490184246, -37.798657357788933 ], [ 175.525313853395744, -37.798656020193611 ], [ 175.525426323144472, -37.798653607806301 ], [ 175.529640745675437, -37.798563134265123 ], [ 175.53508765963187, -37.798445978421206 ], [ 175.537338778460253, -37.798397486207804 ], [ 175.538574484076946, -37.798370849086297 ], [ 175.539535264569992, -37.798350129337045 ], [ 175.539846920027884, -37.798343406633578 ], [ 175.540534541990098, -37.798328571055947 ], [ 175.545044184296813, -37.798231175027375 ], [ 175.54598139268262, -37.798210912173829 ], [ 175.546846295692319, -37.798192205969215 ], [ 175.55142821164182, -37.798093001779407 ], [ 175.552071856225638, -37.798079051776433 ], [ 175.552964685394755, -37.798059695251474 ], [ 175.554293657387319, -37.798030870605551 ], [ 175.554905874179894, -37.798017586920587 ], [ 175.55494574755059, -37.798016721650377 ], [ 175.55687499880014, -37.797974839877149 ], [ 175.556909826544199, -37.79898458075121 ], [ 175.557098640318316, -37.804457869417327 ], [ 175.557212478903352, -37.807757076452866 ], [ 175.557249565397484, -37.808831780028882 ], [ 175.557322353564899, -37.810940890677294 ], [ 175.557546138564362, -37.817423903656199 ], [ 175.557570347804869, -37.818125116092155 ], [ 175.557769995341175, -37.823906908353166 ], [ 175.555345852865685, -37.82395955904618 ], [ 175.553139069453152, -37.824007445404497 ], [ 175.553099051442018, -37.824008313397819 ], [ 175.552321306666641, -37.824025180029892 ], [ 175.546872586147771, -37.824143199965462 ], [ 175.541423833852321, -37.824260968155379 ], [ 175.540163407067126, -37.824288174804785 ], [ 175.539964531819692, -37.824292466346392 ], [ 175.538505227513895, -37.824323946479602 ], [ 175.538386019808911, -37.824326517229935 ], [ 175.535975049847906, -37.824378484595172 ], [ 175.530526234202199, -37.824495749280253 ] ] ], [ [ [ 175.617301699225408, -38.134005657377415 ], [ 175.616534806083763, -38.134022753183316 ], [ 175.615397028331074, -38.134048107618675 ], [ 175.613768472688264, -38.13408437942703 ], [ 175.613599137498198, -38.134088149626649 ], [ 175.612750729826757, -38.134107035499987 ], [ 175.612372422281709, -38.13411545478958 ], [ 175.61218132422988, -38.134119707240714 ], [ 175.610542424751515, -38.134156164423395 ], [ 175.610043662158006, -38.134167254810563 ], [ 175.610005383263569, -38.134168105884903 ], [ 175.609237506191448, -38.134185175851783 ], [ 175.609174150470466, -38.134186584029877 ], [ 175.608994618413107, -38.134190574219339 ], [ 175.608676154244222, -38.13419765156813 ], [ 175.608520598405505, -38.13420110822959 ], [ 175.608406169461659, -38.134203650864031 ], [ 175.608262741030074, -38.134206837715318 ], [ 175.607896278165185, -38.134214979395395 ], [ 175.606900985944179, -38.134237085955697 ], [ 175.60689124546775, -38.13396344552838 ], [ 175.606886622748533, -38.133833577593968 ], [ 175.606884999076414, -38.133787962912827 ], [ 175.606881577902499, -38.133691849722375 ], [ 175.606880009100706, -38.133647776233076 ], [ 175.60667027433243, -38.127754675207818 ], [ 175.606638961430804, -38.12687470109411 ], [ 175.60663645183314, -38.12680417319487 ], [ 175.606558926640531, -38.124625339997905 ], [ 175.606485162718428, -38.122551997555377 ], [ 175.606439636770318, -38.121272256102792 ], [ 175.606343713845064, -38.11857558126637 ], [ 175.606232376713336, -38.115445114429761 ], [ 175.606209073232321, -38.114789828641463 ], [ 175.606094784741117, -38.111575766853299 ], [ 175.606027022930931, -38.109669902464063 ], [ 175.606001803416888, -38.108960533891917 ], [ 175.605980415663993, -38.108358924592224 ], [ 175.605979426140408, -38.108331090162856 ], [ 175.605979173707766, -38.108323989448408 ], [ 175.605978583692945, -38.108307392824742 ], [ 175.605748168126837, -38.101824948653487 ], [ 175.609672323479771, -38.10173780217292 ], [ 175.610568966229266, -38.101717871373765 ], [ 175.611217191597007, -38.101703458190265 ], [ 175.611464090643892, -38.101697967489002 ], [ 175.616686182132867, -38.101581713509468 ], [ 175.622155139665779, -38.101459714615771 ], [ 175.621989634842265, -38.09683128637306 ], [ 175.621923351751434, -38.094977346644761 ], [ 175.624708515057392, -38.094915127490829 ], [ 175.627391794136742, -38.094855121845015 ], [ 175.627159598686234, -38.088372773803769 ], [ 175.627090060050847, -38.086431012943507 ], [ 175.627007726496601, -38.084131731025295 ], [ 175.626927477750002, -38.081890417390952 ], [ 175.626695431302409, -38.075408052607465 ], [ 175.631660347890119, -38.075296909128873 ], [ 175.632162395290919, -38.075285658716162 ], [ 175.635530234158722, -38.075210133061319 ], [ 175.636017512539752, -38.075199197568772 ], [ 175.636080953813149, -38.075197773671988 ], [ 175.636755685674444, -38.075182627646136 ], [ 175.637629326116212, -38.075163010861019 ], [ 175.637396391247961, -38.068680694448894 ], [ 175.637405612577282, -38.068680487387518 ], [ 175.640226657064687, -38.068617107911194 ], [ 175.642862807416805, -38.068557821093279 ], [ 175.642879327046927, -38.069016662382822 ], [ 175.64306798252025, -38.074255923865344 ], [ 175.64309622370979, -38.075040109046782 ], [ 175.643136542041645, -38.076159592431452 ], [ 175.643155394579907, -38.076683032776153 ], [ 175.643245841247534, -38.07919409327414 ], [ 175.643252473530936, -38.079378212266001 ], [ 175.64332971492837, -38.081522388615689 ], [ 175.643352106705237, -38.082143928613142 ], [ 175.643415748806234, -38.083910370094536 ], [ 175.643424174237794, -38.084144213597433 ], [ 175.643520486713385, -38.0868171235064 ], [ 175.643563281098352, -38.088004659799118 ], [ 175.642700303797, -38.088024082971828 ], [ 175.639399812527444, -38.088098309113256 ], [ 175.638323070519505, -38.088122504333221 ], [ 175.638095420192712, -38.088127618545464 ], [ 175.638099616322791, -38.088244297770281 ], [ 175.638135950457297, -38.089254590544257 ], [ 175.63814421691967, -38.089484437488082 ], [ 175.638245722514256, -38.092306561363984 ], [ 175.638252215383773, -38.092487066828774 ], [ 175.638294446364171, -38.093661072571351 ], [ 175.63832857945232, -38.094609909815986 ], [ 175.63836785908407, -38.095701756146582 ], [ 175.638370233175749, -38.095767746294456 ], [ 175.638391877633865, -38.096369364711279 ], [ 175.638408510292351, -38.096831665452285 ], [ 175.638424024023863, -38.097262856311623 ], [ 175.638529128970049, -38.100183914707657 ], [ 175.638554157637401, -38.100879444550777 ], [ 175.6385618135605, -38.101092192704215 ], [ 175.63867115087001, -38.104130288930413 ], [ 175.638710001193033, -38.105209691198034 ], [ 175.638714052029314, -38.105322234723076 ], [ 175.638717344561144, -38.105413709972417 ], [ 175.638718949692532, -38.105458304620477 ], [ 175.638722273330444, -38.105550643452176 ], [ 175.638734310118792, -38.105885051477934 ], [ 175.638777454878181, -38.10708366057171 ], [ 175.638795122542888, -38.107574467209233 ], [ 175.635210763673257, -38.107654966986281 ], [ 175.633325782223011, -38.107697257138064 ], [ 175.63332744408487, -38.107743518758411 ], [ 175.633408764667735, -38.11000712804897 ], [ 175.63343799210034, -38.110820629688924 ], [ 175.633453433686867, -38.111250409748152 ], [ 175.633487868826421, -38.112208797387304 ], [ 175.633512498649594, -38.112894258628501 ], [ 175.633558683743331, -38.114179551688608 ], [ 175.633618224794901, -38.115836408852118 ], [ 175.63371065836256, -38.118408300280443 ], [ 175.633739681094511, -38.119215767168193 ], [ 175.63375028241137, -38.119510707622354 ], [ 175.63376210707662, -38.119839677890589 ], [ 175.633788148403909, -38.120564146439349 ], [ 175.633791660034944, -38.120661837859146 ], [ 175.633820390631087, -38.121461087588401 ], [ 175.633823220432078, -38.121539807442282 ], [ 175.633836991837995, -38.121922898200005 ], [ 175.633881544861282, -38.12316221706201 ], [ 175.633928292489031, -38.12446250052168 ], [ 175.633984733399302, -38.12603229025266 ], [ 175.63401172164177, -38.12678287031892 ], [ 175.634024711123487, -38.127144115648782 ], [ 175.63436833984656, -38.127136405174426 ], [ 175.639495498992972, -38.127021240416425 ], [ 175.639590784256313, -38.129665495009817 ], [ 175.639633538802173, -38.130851860400305 ], [ 175.63968527794313, -38.132287439334277 ], [ 175.639699350553627, -38.132677886985633 ], [ 175.639729107729892, -38.133503481379897 ], [ 175.639836285615331, -38.136476784497788 ], [ 175.639859043840914, -38.137108081142706 ], [ 175.639872928206927, -38.137493213637065 ], [ 175.639879499729261, -38.137675495715804 ], [ 175.639881065066646, -38.137718915084314 ], [ 175.63996279146977, -38.13998571395576 ], [ 175.637809902847238, -38.140034112673675 ], [ 175.637532492323686, -38.140040346217425 ], [ 175.637330372529135, -38.140044887530188 ], [ 175.636651254492051, -38.140060143689006 ], [ 175.636308733449937, -38.140067836817352 ], [ 175.636108178874963, -38.140072340870667 ], [ 175.635995411969816, -38.140074873238433 ], [ 175.63579997452257, -38.14007926185343 ], [ 175.634726684898851, -38.140103357134969 ], [ 175.634491037794248, -38.140108646081941 ], [ 175.632949815194678, -38.14014322615138 ], [ 175.632875483663042, -38.140144893399473 ], [ 175.630526885819421, -38.1401975479302 ], [ 175.62901925084131, -38.140231323656572 ], [ 175.629000945267848, -38.139721502644825 ], [ 175.628973761400175, -38.138964392058753 ], [ 175.628915540749745, -38.137342765654452 ], [ 175.628910293288584, -38.137196601098381 ], [ 175.628896638334624, -38.136816246417006 ], [ 175.628891938773705, -38.136685339881154 ], [ 175.628860547413154, -38.135810909899874 ], [ 175.628858545877591, -38.135755154330987 ], [ 175.62883775008649, -38.135175849372082 ], [ 175.628786533073509, -38.133749034240765 ], [ 175.627258842997861, -38.133783234596237 ], [ 175.626976545365295, -38.133789552207219 ], [ 175.626629132819488, -38.133797326108862 ], [ 175.62613928115897, -38.133808285561059 ], [ 175.62608869152055, -38.133809417286578 ], [ 175.626073053508833, -38.133809767115409 ], [ 175.626063988583951, -38.133809969900582 ], [ 175.626036683380022, -38.133810580722241 ], [ 175.625616709271554, -38.133819974807444 ], [ 175.625487916465346, -38.133822855375627 ], [ 175.624950699813667, -38.13383486918903 ], [ 175.624564865254371, -38.133843496115837 ], [ 175.623531478422564, -38.13386659549861 ], [ 175.623315195915154, -38.133871428927435 ], [ 175.622546241815598, -38.133888610096655 ], [ 175.622105564892422, -38.133898454113783 ], [ 175.621681495673784, -38.133907925578036 ], [ 175.621275831500611, -38.133916984535901 ], [ 175.620969875038099, -38.133923815975201 ], [ 175.620745322213367, -38.133928829314662 ], [ 175.620585461081049, -38.133932398093158 ], [ 175.620491793234322, -38.133934489055534 ], [ 175.62018095036737, -38.133941427514692 ], [ 175.620090925810757, -38.13394343683823 ], [ 175.619286514618977, -38.133961388009155 ], [ 175.618584768194239, -38.133977043616071 ], [ 175.618124389063837, -38.13398731216018 ], [ 175.617843825628285, -38.133993569111929 ], [ 175.617301699225408, -38.134005657377415 ] ] ], [ [ [ 175.567993069231363, -37.804220736059442 ], [ 175.567838926023285, -37.799771526062358 ], [ 175.567768477443991, -37.797737761567255 ], [ 175.56902503087133, -37.797710349895432 ], [ 175.571523653968541, -37.797655802633571 ], [ 175.573215168794349, -37.797618845168721 ], [ 175.576687221913801, -37.797542908985491 ], [ 175.578661828073649, -37.797499677280513 ], [ 175.57869438613335, -37.79843564633714 ], [ 175.578887370086562, -37.80398259649148 ], [ 175.579079675589668, -37.809508526353916 ], [ 175.579112984436108, -37.810465507403251 ], [ 175.579338671146957, -37.816948410014973 ], [ 175.579376146285824, -37.818024689946533 ], [ 175.579428915685355, -37.819540121040632 ], [ 175.579564430243721, -37.82343130432573 ], [ 175.574115869622744, -37.823550582921584 ], [ 175.570058122470556, -37.823639250162913 ], [ 175.570045176575974, -37.823639532824096 ], [ 175.568667276886885, -37.823669609794472 ], [ 175.568526765815449, -37.819617835056071 ], [ 175.568442468928254, -37.81718666017391 ], [ 175.568217733051256, -37.810703702261961 ], [ 175.568191582627463, -37.809949205159199 ], [ 175.568186496054039, -37.809802443071867 ], [ 175.568139147536129, -37.808436252546485 ], [ 175.568057208043882, -37.806071757657008 ], [ 175.567993069231363, -37.804220736059442 ] ] ] ] } }
]
}
